warehouse_key,name,phone,continent,country,country_code,city,address,latitude,longitude
W00001,Mirdiff city center,+971-42316646,Asia,United Arab Emirates,AE,Dubai,"شارع 47, مردف, دبي, الإمارات العربية المتحدة",25.22628,55.42484
W00002,Dubai Mall,+971-44190346,Asia,United Arab Emirates,AE,Dubai,"دبي مول, شارع المركز المالي, وسط مدينة دبي, دبي, الإمارات العربية المتحدة",25.197506,55.278446
W00003,Abu Dhabi-Dubai Rd - Abu Dhabi,+971-26120851,Asia,United Arab Emirates,AE,Abu Dhabi,"Deerfields Townsquare Shopping Centre, شارع الشيخ زايد بن سلطان, الباهية, البَاهية, أبوظبي, أبو ظبي, الإمارات العربية المتحدة",24.523875,54.671499
W00004,Street E,+971-44190590,Asia,United Arab Emirates,AE,Dubai,"Shades, ممشى المارينا, دبي مارينا, مرسى دبي, دبي, الإمارات العربية المتحدة",25.077058,55.140564
W00005,Fujairah City Center,+971-92029601,Asia,United Arab Emirates,AE,Fujairah,"City Centre Fujairah, شارع الشيخ حمد بن عبد الله الشرقي, الحليفات, Fujairah City - مدينة الفجيرة, فجيرة, الإمارات العربية المتحدة",25.125555,56.301462
W00006,Arabian plaza,+971-44190605,Asia,United Arab Emirates,AE,Dubai,"Arabian Center, طريق الخوانيج, المزهر, دبي, الإمارات العربية المتحدة",25.235277,55.436211
W00007,Deira City Centre,+971-42502044,Asia,United Arab Emirates,AE,Dubai,"ديرة سيتي سنتر, شارع 8, بور سعيد, ديرة, دبي, الإمارات العربية المتحدة",25.25174097781868,55.3325343132019
W00008,Deira City Centre,+971-4-2957244,Asia,United Arab Emirates,AE,Dubai,"ديرة سيتي سنتر, شارع 8, بور سعيد, ديرة, دبي, الإمارات العربية المتحدة",25.253477,55.330841
W00009,Bawadi Mall,+971-37840041,Asia,United Arab Emirates,AE,Al Ain,"بوادي مول, شارع النَّماء 4, النود, Al Khirayr, العين, أبو ظبي, الإمارات العربية المتحدة",24.160585,55.806987
W00010,Bawabat Al Sharq Mall,+971-26958220,Asia,United Arab Emirates,AE,Abu Dhabi,"Bawabat Al Sharq Mall, Baniyas, بني ياس غرب, جَرْن يَافُور, أبوظبي, أبو ظبي, الإمارات العربية المتحدة",24.311992,54.620179
W00011,Maina Mall,+971-26817871,Asia,United Arab Emirates,AE,Abu Dhabi,"Marina Mall, شارع الملك سلمان بن عبدالعزيز آل سعود, الكاسر, أبو ظبي, أبوظبي, أبو ظبي, الإمارات العربية المتحدة",24.47588,54.321941
W00012,Deira Ciry Centre,+971-42502044,Asia,United Arab Emirates,AE,Dubai,"ديرة سيتي سنتر, شارع 8, بور سعيد, ديرة, دبي, الإمارات العربية المتحدة",25.251461,55.332823
W00013,Al Hamra,+971-72437569,Asia,United Arab Emirates,AE,Ras Al Khaimah,"Al Hamra Mall, طريق الشيخ محمد بن سالم, الجزيرة الحمرة, Al jazeera heritage village, رأس الخيمة, الإمارات العربية المتحدة",25.683252,55.782265
W00014,Feest- en Cultuurpaleis,+32-80026880,Europe,Belgium,BE,Oostende,"H&M, 2, Wittenonnenstraat, Hazegras, Oostende, West-Vlaanderen, Vlaanderen, 8400, België / Belgique / Belgien",51.231494,2.918629
W00015,Place du Royaume,+1-855-272-7007,North America,Canada,CA,Chicoutimi,"H&M, Rue des Champs-Élysées, Des Oiseaux, Arrondissement de Chicoutimi, Saguenay, Saguenay–Lac-Saint-Jean, Québec, G7H 5Y4, Canada",48.40600902650495,-71.05441047055149
W00016,H&M La Colina,01-800-5190076,South America,Colombia,CO,Bogota,"Centro Comercial Parque La Colina, Avenida Carrera 72, UPZs de Bogotá, Localidad Suba, Bogotá, Bogotá, Distrito Capital, RAP (Especial) Central, 111156, Colombia",4.732019231909,-74.06680482841114
W00017,H&M Fontanar,01-800-5190076,South America,Colombia,CO,"Chia, Chia","Centro Comercial Fontanar, Vía Chía - Cajicá, Sector el cuarenta, Bojacá, Chía, Sabana Centro, Cundinamarca, RAP (Especial) Central, 250008, Colombia",4.885416,-74.035608
W00018,H&M MultiPlaza,01-800-5190076,South America,Colombia,CO,Bogota,"Multi Plaza, Avenida Calle 17, Zentral, UPZs Localidad Fontibón, Localidad Fontibón, Bogotá, Bogotá Distrito Capital - Municipio, RAP (Especial) Central, 110931, Colombia",4.6513646217502,-74.12604517048169
W00019,H&M Plaza Central,01-800-5190076,South America,Colombia,CO,Bogota,"Plaza Central, Carrera 65, Salazar Gómez, UPZs de Bogotá, Localidad Puente Aranda, Bogotá, Bogotá, Distrito Capital, RAP (Especial) Central, 111611, Colombia",4.63179906988253,-74.1150759534089
W00020,H&M Viva Barranquilla,01-800-5190076,South America,Colombia,CO,Barranquilla,"Viva Mall, #87-50, Carrera 51B, Santa Mónica, Localidad Riomar, Perímetro Urbano Barranquilla, Barranquilla, Atlántico, RAP Caribe, 080020, Colombia",11.00831658929434,-74.82182480342442
W00021,H&M Centro Mayor,01-800-5190076,South America,Colombia,CO,Bogota,"TransMilenio, Campania, UPZs de Bogotá, Localidad Suba, Bogotá, Bogotá, Distrito Capital, RAP (Especial) Central, 111121, Colombia",4.7109886,-74.072092
W00022,H&M Parque Fabricato,01-800-519-0076,South America,Colombia,CO,Medellin,"Centro Comercial Parque Fabricato, Carrera 50, Manchester, Bello, Valle de Aburrá, Antioquia, RAP del Agua y la Montaña, 051053, Colombia",6.32553561728961,-75.55886059999467
W00023,C.C. H2Ocio,+34-901120084,Europe,Spain,ES,Madrid,"Calle de los Profesores Fuster y Menéndez, Rivas Este, Rivas-Vaciamadrid, Comunidad de Madrid, 28526, España",40.33673112309079,-3.53274822235107
W00024,C.C. y de Ocio Islazul,+34-901120084,Europe,Spain,ES,Madrid,"Centro Comercial Islazul, 1, Calle de la Calderilla, Buenavista, Carabanchel, Madrid, Comunidad de Madrid, 28054, España",40.36413852238851,-3.73758316040039
W00025,C.C. Las Arenas,+34-901120084,Europe,Spain,ES,L. Palmas de Gran Canaria,"Quinta Cumbre, Paseo del Príncipe de Asturias, Guanarteme, Las Palmas de Gran Canaria, Las Palmas, Canarias, 35010, España",28.12899234754029,-15.44918060302734
W00026,C.C. Tres Aguas,+34-901120084,Europe,Spain,ES,Alcorcón (Madrid),"Centro Comercial TresAguas, 20, Avenida de San Martín de Valdeiglesias, Urbanización Los Almendros, Norte, Alcorcón, Comunidad de Madrid, 28291, España",40.35867755464052,-3.83178234100342
W00027,C.C. Deiland,+34-901120084,Europe,Spain,ES,Lanzarote,"Multicines Deiland, Calle Chimidas, Playa Honda, San Bartolomé, Las Palmas, Canarias, 35509, España",28.95659493398558,-13.58733211346134
W00028,Parque Santiago 6,+34-901120084,Europe,Spain,ES,Adeje (Tenerife),"Avenida de Chayofita, Playa de las Américas, Los Cristianos, Arona, Santa Cruz de Tenerife, Canarias, 38650, España",28.05820226258412,-16.72032742003785
W00029,C.C. Siam Mall,+34-901120084,Europe,Spain,ES,Adeje (Tenerife),"Siam Mall Tenerife, 3, Avenida Siam, Siam Mall, La Caldera, Adeje, Santa Cruz de Tenerife, Canarias, 38670, España",28.06873002786408,-16.72223715285645
W00030,C.C. Plaza Río 2,+34-901120084,Europe,Spain,ES,Madrid,"Centro Comercial Plaza Río 2, 210, Avenida del Manzanares, Moscardó, Usera, Madrid, Comunidad de Madrid, 28026, España",40.390925,-3.701435
W00031,Market Central Da Vinci,+39-0632832333,Europe,Italy,IT,Roma (RM),"H&M, Via Enrico Fermi, Parco Commerciale Da Vinci, Fiumicino, Roma Capitale, Lazio, 00054, Italia",41.81065181840865,12.30007410049438
W00032,Centro Commerciale San Giuliano,+39-0632832389,Europe,Italy,IT,Milano (MI),"Via Massimo Gorki, Cascina Carlotta, Zivido, San Giuliano Milanese, Milano, Lombardia, 20098, Italia",45.38310970550263,9.3043041229248
W00033,Centro Commerciale Montecatini,+39-0632832426,Europe,Italy,IT,Montecatini,"46, Via Biscolla, Biscolla, Traversagna, Massa e Cozzile, Pistoia, Toscana, 51010, Italia",43.86361896983092,10.76655864715576
W00034,Quasar Village,+39-0632832442,Europe,Italy,IT,Perugia (PG),"Via Maria Sticco, Valliano, Chiugiana, Corciano, Perugia, Umbria, 06073, Italia",43.1237872,12.28925960000004
W00035,Centro Commerciale Vibo Center,+39-0632832478,Europe,Italy,IT,Vibo Valenzia,"Vibo Center, SS18, Jonadi, Vibo Valentia, 89052, Italia",38.65377306523363,16.05378141657718
W00036,Centro Commerciale Costaverde,+39-0632832516,Europe,Italy,IT,Montenero di Bisaccia,"Montenero di Bisaccia, Campobasso, Molise, 86036, Italia",41.9575175,14.78133090000006
W00037,Mega 2,+7-7272321434,Asia,Kazakhstan,KZ,Almaty,"MEGA Alma-Ata, 247А, Розыбакиев көшесі, Орбита, Бостандық ауданы, Алматы, 050060, Қазақстан",43.20221585235989,76.89210614655758
W00038,SEC Aport,+7-7273121400,Asia,Kazakhstan,KZ,Almaty,"Food Solutions, 17 К, Алматы, A10H6G1, Қазақстан",43.233863,76.777266
W00039,Schmiede Knauf Shopping Center,+352-80081040,Europe,Luxembourg,LU,Huldange,"Knauf Schmiede, 3, Op d'Schmëtt, Troisvierges, Canton Clervaux, 9964, Lëtzebuerg",50.180869,6.023903
W00040,Centro Santa Fe,+52-8000408555,North America,Mexico,MX,Ciudad de México,"Centro Santa Fe, Prolongación Vasco de Quiroga, Colonia La Rosita, Ciudad de México, Cuajimalpa de Morelos, Ciudad de México, 05320, México",19.36212588463893,-99.27253603935242
W00041,Centro Comercial Galerias Guadalajara,+52-8000408555,North America,Mexico,MX,Guadalajara,"McDonald's, Avenida Rafael Sanzio, Eucalipto Vallarta, Zapopan, Región Centro, Jalisco, 45020, México",20.67709563889652,-103.4312574460327
W00042,Antea Life Style Center,+52-8000408555,North America,Mexico,MX,"Querétaro, QA","Antea, Avenida 5 de Febrero, Delegación Félix Osores, Municipio de Querétaro, Querétaro, 76100, México",20.67549951936517,-100.43684132309568
W00043,Via Vallejo,+52-8000408555,North America,Mexico,MX,Ciudad de México,"Calle Poniente 122, Barrio de Cahuacaltzingo, Ciudad de México, Azcapotzalco, Ciudad de México, 02300, México",19.487642,-99.157994
W00044,"Paseo Altozano, Av. Montaña Monarca Norte #1000",+52-8000408555,North America,Mexico,MX,Morelia,"Avenida Paseo Altozano, Morelia, Michoacán, 58350, México",19.67208917,-101.16530576
W00045,Parque Comercial Toreo,+52-8000408555,North America,Mexico,MX,México,"Toreo Parque Central, 5, Periférico Boulevard Manuel Ávila Camacho, Lázaro Cárdenas, Naucalpan de Juárez, Estado de México, 53569, México",19.45415977,-99.21959996
W00046,H&M Fashion Drive / Plaza Fiesta San Agustín,+52-8000408555,North America,Mexico,MX,Monterrey,"Calle Zaragoza, Centro, Cadereyta Jiménez, Nuevo León, 67480, México",25.592172,-99.9961947
W00047,Calle Francisco I. Madero #26 & #28,+52-8000408555,North America,Mexico,MX,México,"Chillout, Calle Simón Bolívar, Barrio Chino, Centro, Ciudad de México, Cuauhtémoc, Ciudad de México, 06000, México",19.435368,-99.137947
W00048,Comercial Downtown Playa,+52-8000408555,North America,Mexico,MX,Playa del Carmen,"Hollister, local 1 2, Avenida 5 (Norte), Playa del Carmen, Solidaridad, Quintana Roo, 77710, México",20.627876,-87.071658
W00049,Galerias Serdán,+52-8000408555,North America,Mexico,MX,Puebla,"Galerias Serdan, 270, Avenida Hermanos Serdán, Puebla, Municipio de Puebla, Puebla, 72060, México",19.071291,-98.225592
W00050,Paseo Tollocan,+52-8000408555,North America,Mexico,MX,Toluca,"Galerías Toluca, Calle Primero de Mayo, Zona Industrial Toluca, Toluca, Estado de México, 50160, México",19.289841,-99.622593
W00051,Andamar,+52-8000408555,North America,Mexico,MX,Veracruz,"Plaza Andamar, Puente de la Amistad, De Las Américas, Boca del Río, Veracruz, 94298, México",19.13973552,-96.10215425
W00052,El Dorado,+52-8000408555,North America,Mexico,MX,Veracruz,"Carretera Federal Córdoba - Veracruz, Colonia Río Jamapa, Rivera de la Condesa, Boca del Río, Veracruz, 94290, México",19.096058,-96.106912
W00053,Galerias Mazatlan,+52-8000408555,North America,Mexico,MX,Mazatlan,"Galerías Mazatlán;Sears, Avenida del Delfín, Mediterráneo Club Residencial, Marina Mazatlán, Mazatlán, Sinaloa, 82000, México",23.278444,-106.44848000000002
W00054,Sor Juana Inés de La Cruz #232 & 280,+52-8000408555,North America,Mexico,MX,México,"Avenida Sor Juana Inés De La Cruz, Tlalnepantla, Tlalnepantla de Baz, Estado de México, 54060, México",19.539482,-99.205448
W00055,Cosmopol,+52-8000408555,North America,Mexico,MX,México,"Cosmopol, Carretera Vía José López Portillo, Coacalco de Berriozábal, Tultitlán, Estado de México, 55717, México",19.631721,-99.12499
W00056,H&M Puerto Cancun,+52-8000408555,North America,Mexico,MX,Cancún,"Green Motion Car Rental, Distrito 1, Cancún, Benito Juárez, Quintana Roo, 77503, México",21.161908,-86.85152790000001
W00057,H&M Mundo E Blvd Manuel Avila Camacho,+52-8000408555,North America,Mexico,MX,Tlalnepantla de Baz,"Avenida Mario Colín, Tlalnepantla, Tlalnepantla de Baz, Estado de México, 54150, México",19.5345279,-99.1907364
W00058,Fashion Mall Tuxtla - Local SA-02,+52-8000408555,North America,Mexico,MX,Tuxtla Gutiérrez,"Tuxtla Gutiérrez, Chiapas, 29050, México",16.7167712,-93.18298679999998
W00059,Esfera City Center,+52-8000408555,North America,Mexico,MX,San Pedro Garza García,"Avenida la Rioja, Monterrey, Nuevo León, 64988, México",25.5781055,-100.2443624
W00060,Barranca del Muerto,+52-8000408555,North America,Mexico,MX,México,"Portal San Ángel, Anillo Periférico, Los Alpes, Ciudad de México, Álvaro Obregón, Ciudad de México, 01010, México",19.3607061,-99.1895834
W00061,Centro Comercial Plaza Mayor,+52-8000408555,North America,Mexico,MX,Leon,"288, Circuito del Moral, Del Moral, León, Guanajuato, 37125, México",21.157186,-101.68596049999996
W00062,Plaza Cibeles,+52-8000408555,North America,Mexico,MX,Irapuato,"Plaza Cibeles, 1443, Avenida Héroes de Nacozari, Plaza Cibeles, Irapuato, Guanajuato, 36670, México",20.6804233,-101.3796324
W00063,Parque Tezontle,+52-8000408555,North America,Mexico,MX,Ciudad de México,"Avenida Río Soto La Marina, Colonia Real del Moral, Ciudad de México, Iztapalapa, Ciudad de México, 09020, México",19.385365,-99.082048
W00064,Perisur,+52-8000408555,North America,Mexico,MX,México,"Plaza de la Constitución, Francisco I. Madero, Centro, Ciudad de México, Cuauhtémoc, Ciudad de México, 06000, México",19.4326077,-99.13320799999995
W00065,Manacar,+52-8000408555,North America,Mexico,MX,México,"34, Calle Murcia, Actipan, Ciudad de México, Benito Juárez, Ciudad de México, 03920, México",19.370217,-99.180954
W00066,Punto La Victoria,+52-8000408555,North America,Mexico,MX,"Querétaro, QA","Avenida Guadalupe, Santa Isabel, Delegación Felipe Carrillo Puerto, Municipio de Querétaro, Querétaro, 76113, México",20.6171767,-100.4581104
W00067,Paseo Interlomas,+52-8000408555,North America,Mexico,MX,México,"Paseo Interlomas, Avenida Club de Golf Lomas, Colonia Bosque Real, Interlomas, Huixquilucan, Estado de México, 52760, México",19.399091,-99.283671
W00068,Averanda,+52-8000408555,North America,Mexico,MX,Cuernavaca,"Cuidado Con El Perro, Libramiento Cuernavaca, Villas del Lago, Cuernavaca, Morelos, 62370, México",18.934095,-99.197414
W00069,H&M Galerias Atizapan,+52-8000408555,North America,Mexico,MX,Atizapán de Zaragoza,"Studio F, Avenida Adolfo Ruiz Cortinez, Las Margaritas, Atizapán de Zaragoza, Estado de México, 52977, México",19.549717,-99.274221
W00070,Galerias Valle Oriente,+52-8000408555,North America,Mexico,MX,Monterrey,"Privada Paseo de la Esperanza, Valle del Mirador, Monterrey, Nuevo León, 64750, México",25.6394185,-100.3112024
W00071,Parque Delta,+52-8000408555,North America,Mexico,MX,Benito Juárez Narvarte,"Calle Pitágoras, Colonia Narvarte Poniente, Ciudad de México, Benito Juárez, Ciudad de México, 03020, México",19.3923907,-99.15806929999997
W00072,"Boulevard Francisco Medina Ascencio,",+52-8000408555,North America,Mexico,MX,Puerto Vallarta,"Pitillal, Puerto Vallarta, Región Costa Norte, Jalisco, 48300, México",20.653407,-105.2253316
W00073,Galerías Saltillo,+52-8000408555,North America,Mexico,MX,Saltillo,"AT&T, Avenida Real San Agustín, Residencial San Agustin, San Pedro Garza García, Nuevo León, 66260, México",25.649089,-100.338928
W00074,Galerías Pachuca,+52-8000408555,North America,Mexico,MX,Pachuca,"Plaza Galerias Pachuca, Boulevard Felipe Ángeles, Pachuca, Pachuca de Soto, Hidalgo, 42084, México",20.098473,-98.768106
W00075,Galerías Mérida,+52-8000408555,North America,Mexico,MX,Mérida,"Centro De Atencíon A Clientes Telcel, Calle 41, Xcumpich, Mérida, Yucatán, 92704, México",21.039654,-89.630809
W00076,Plaza Cumbres,+52-8000408555,North America,Mexico,MX,Monterrey,"Cinepolis, Avenida Hacienda de Peñuelas, Monterrey, Nuevo León, 64619, México",25.733179,-100.396827
W00077,Malecon Cancun,+52-8000408555,North America,Mexico,MX,Cancún,"Green Motion Car Rental, Distrito 1, Cancún, Benito Juárez, Quintana Roo, 77503, México",21.161908,-86.85152790000001
W00078,Parque Puebla,+52-8000408555,North America,Mexico,MX,Puebla,"Parque Puebla, Circuito Monte Líbano, Puebla, Municipio de Puebla, Puebla, 72220, México",19.071141,-98.172956
W00079,Galerías Laguna,+52-8000408555,North America,Mexico,MX,Torreon,"Cerveceria Corona, Avenida Allende, Torreón, Coahuila, 27289, México",25.5428443,-103.40678609999998
W00080,"Anillo Vial Fray Junipero Serra No. 7901,",+52-8000408555,North America,Mexico,MX,"Querétaro, QA","Paseo Querétaro, Anillo Vial Fray Junípero Serra 7901, La Purisima, 76146 Santiago de Querétaro, QRO, Mexico, Anillo Vial Junípero Serra, Vista Hermosa, Delegación Epigmenio González, La Purísima, Municipio de Querétaro, Querétaro, 76146, México",20.6310072,-100.3560229
W00081,Jacarandas 103,+52-8000408555,North America,Mexico,MX,Cuernavaca,"Avenida Plan de Ayala, Jacarandas, Cuernavaca, Morelos, 62448, México",18.9242095,-99.22156590000004
W00082,Fashion Mall Chihuahua,+52-8000408555,North America,Mexico,MX,Chihuahua,"Fashion Mall, 3400, Periférico de la Juventud, Chihuahua, Municipio de Chihuahua, Chihuahua, 31236, México",28.6227185,-106.1149658
W00083,Galerias Monterrey,+52-8000408555,North America,Mexico,MX,Monterrey,"Liverpool, 550, Avenida Doctor José Eleuterio González, San Jerónimo, Monterrey, Nuevo León, 64620, México",25.6817958,-100.353752
W00084,Westfield Newmarket,+64-800406700,Oceania,New Zealand,NZ,Auckland,"Cinderella Beauty & Spa, 277, Broadway, Newmarket, Auckland, Waitematā, Auckland, 1023, New Zealand / Aotearoa",-36.8708538,174.7759363
W00085,Wola Park,+48-225334457,Europe,Poland,PL,Warsaw,"C&A, 124, Górczewska, Koło, Wola, Warszawa, województwo mazowieckie, 01-460, Polska",52.2413843,20.9312364
W00086,Atrium Reduta,+48-225725540,Europe,Poland,PL,Warsaw,"Atrium Reduta, 148, Aleje Jerozolimskie, Szczęśliwice, Ochota, Warszawa, województwo mazowieckie, 02-326, Polska",52.2125406,20.9515792
W00087,Centrum Janki,+48-227358240,Europe,Poland,PL,Warsaw,"Centrum Handlowe Janki, 3, Mszczonowska, Janki Duże, Janki, gmina Raszyn, powiat pruszkowski, województwo mazowieckie, 05-090, Polska",52.134109,20.888499
W00088,CH Galaxy,+48-914646140,Europe,Poland,PL,Szczecin,"Basilia, 18, aleja Wyzwolenia, Centrum, Śródmieście, Szczecin, województwo zachodniopomorskie, 70-554, Polska",53.4343,14.55504
W00089,DH Merkury,+48-713472140,Europe,Poland,PL,Wroclaw,"H&M, 7, Świdnicka, Dzielnica Czterech Wyznań, Stare Miasto, Wrocław, województwo dolnośląskie, 50-067, Polska",51.1081921,17.0322989
W00090,Alfa,+48-585116540,Europe,Poland,PL,Gdansk,"Triumph, 41C, Kołobrzeska, Mała Warszawa, Przymorze Małe, Gdańsk, województwo pomorskie, 80-391, Polska",54.40446571694857,18.58850083196523
W00091,CH Arkadia,+48-225306240,Europe,Poland,PL,Warsaw,"Westfield Arkadia, 82, Aleja Jana Pawła II, Osiedle Stawki, Muranów, Śródmieście, Warszawa, województwo mazowieckie, 00-175, Polska",52.25802,20.98305
W00092,Klif,+48-586685240,Europe,Poland,PL,Gdynia,"Luxury & Me, Przebendowskich, Kolibki, Orłowo, Gdynia, województwo pomorskie, 81-540, Polska",54.47529442874922,18.55190895578596
W00093,Galeria Kazimierz,+48-124249540,Europe,Poland,PL,Krakow,"Galeria Kazimierz, 34, Podgórska, Grzegórzki, Kraków, województwo małopolskie, 31-536, Polska",50.053412,19.95582
W00094,CH M1 Czeladz,+48-323632240,Europe,Poland,PL,Czeladz,"Centrum Handlowe M1, 80, Będzińska, Czeladź, powiat będziński, Górnośląsko-Zagłębiowska Metropolia, województwo śląskie, 41-250, Polska",50.318832,19.105564
W00095,Manufaktura,+48-426391040,Europe,Poland,PL,Lodz,"Centrum Handlowo-Rozrywkowe Manufaktura, 58, Drewnowska, Bałuty-Centrum, Stare Miasto, Łódź-Bałuty, Łódź, województwo łódzkie, 91-002, Polska",51.779856,19.446142
W00096,Aura,+48-895443740,Europe,Poland,PL,Olsztyn,"Aura Centrum Olsztyna, 16, Aleja Marszałka Józefa Piłsudskiego, Śródmieście, Olsztyn, województwo warmińsko-mazurskie, 10-576, Polska",53.77752334004569,20.4827065490781
W00097,CH King Cross Marcelin,+48-618468940,Europe,Poland,PL,Poznan,"King Cross Marcelin, 156, Bukowska, Marcelin, Ławica, Poznań, województwo wielkopolskie, 60-198, Polska",52.41082,16.8615168
W00098,CH Plaza,+48-618274940,Europe,Poland,PL,Poznan,"Poznań Plaza, 2, Kaspra Drużbickiego, Trójpole, Winiary, Poznań, województwo wielkopolskie, 61-693, Polska",52.44068,16.91914
W00099,CH Plejada Sosnowiec,+48-323631040,Europe,Poland,PL,Sosnowiec,"Hottu, 8b, Stanisława Staszica, Konstantynów, Środula, Sosnowiec, Górnośląsko-Zagłębiowska Metropolia, województwo śląskie, 41-200, Polska",50.290594,19.152635
W00100,CH M1 Zabrze,+48-323737440,Europe,Poland,PL,Zabrze,"Centrum Handlowe M1, 1, Plutonowego Ryszarda Szkubacza, Maciejów, Zabrze, Górnośląsko-Zagłębiowska Metropolia, 41-800, Polska",50.317189,18.750347
W00101,CH Trzy Stawy,+48-323574540,Europe,Poland,PL,Katowice,"H&M, 60, Generała Kazimierza Pułaskiego, Dolina Trzech Stawów, Osiedle Paderewskiego-Muchowiec, Katowice, Górnośląsko-Zagłębiowska Metropolia, 40-028, Polska",50.242778,19.036809
W00102,Galeria Pomorska,+48-523393840,Europe,Poland,PL,Bydgoszcz,"Action, Fabryczna, Bydgoszcz Wschód, Bydgoszcz Wschód - Siernieczek, Bydgoszcz, województwo kujawsko-pomorskie, 85-741, Polska",53.12524720776188,18.06707739222873
W00103,Atrium Copernicus,+48-566120540,Europe,Poland,PL,Torun,"Galeria Copernicus, 15, Hetmana Stanisława Żółkiewskiego, Jakubskie Przedmieście, Toruń, województwo kujawsko-pomorskie, 87-100, Polska",53.025522,18.636331
W00104,CH Plaza Rybnik,+48-324395040,Europe,Poland,PL,Rybnik,"CARRY, 16, Raciborska, Osiedle Sławików, Smolna, Śródmieście, Rybnik, województwo śląskie, 44-200, Polska",50.096053,18.537209
W00105,Atrium Plejada,+48-323969940,Europe,Poland,PL,Bytom,"CH Atrium Plejada, 25, Aleja Jana Nowaka-Jeziorańskiego, Karb, Bytom, Górnośląsko-Zagłębiowska Metropolia, województwo śląskie, 41-923, Polska",50.346688,18.849681
W00106,CH Pasaż Grunwaldzki,+48-713958040,Europe,Poland,PL,Wroclaw,"Pasaż Grunwaldzki, 22, plac Grunwaldzki, Manhattan, Plac Grunwaldzki, Wrocław, województwo dolnośląskie, 50-363, Polska",51.11268,17.0591
W00107,CH Plaza Lublin,+48-815366740,Europe,Poland,PL,Lublin,"Lublin Plaza, 13, Lipowa, Śródmieście, Lublin, województwo lubelskie, 20-020, Polska",51.24469,22.55131
W00108,CH Forum Gliwice,+48-323397840,Europe,Poland,PL,Gliwice,"Piwna, Zatorze, Śródmieście, Gliwice, Górnośląsko-Zagłębiowska Metropolia, województwo śląskie, 44-102, Polska",50.300197,18.682372
W00109,Auchan Piaseczno,+48-227375440,Europe,Poland,PL,Piaseczno,"Centrum Handlowe Auchan Piaseczno, 46, Puławska, Piaseczno, gmina Piaseczno, powiat piaseczyński, województwo mazowieckie, 05-500, Polska",52.096745,21.022828
W00110,Galeria Baltycka,+48-585207640,Europe,Poland,PL,Gdansk,"H&M, 141, Aleja Grunwaldzka, Strzyża Dolna, Wrzeszcz Górny, Gdańsk, województwo pomorskie, 80-264, Polska",54.38214152047271,18.60136850489664
W00111,Galeria Łódzka,+48-426630440,Europe,Poland,PL,Lodz,"Galeria Łódzka, 15/23, Aleja Marszałka Józefa Piłsudskiego, Katedralna, Centrum, Łódź-Śródmieście, Łódź, województwo łódzkie, 90-051, Polska",51.75942,19.465563
W00112,Focus Park,+48-525543970,Europe,Poland,PL,Bydgoszcz,"Focus Mall Bydgoszcz, 39-47, Jagiellońska, Sielanka, Śródmieście-Bocianowo-Stare Miasto, Bydgoszcz, województwo kujawsko-pomorskie, 85-097, Polska",53.12473972315281,18.01783390854575
W00113,Alfa Bialystok,+48-857496040,Europe,Poland,PL,Bialystok,"Alfa Centrum, 15, Świętojańska, Centrum, Białystok, województwo podlaskie, 15-277, Polska",53.12549,23.169018
W00114,CH Karolinka,+48-774024740,Europe,Poland,PL,Opole,"Centrum Handlowe Karolinka, 154, Wrocławska, Półwieś, Opole, województwo opolskie, 45-835, Polska",50.68278,17.87652
W00115,Krupowki,+48-182021640,Europe,Poland,PL,Zakopane,"49, Krupówki, Łukaszówki, Zakopane, powiat tatrzański, województwo małopolskie, 34-500, Polska",49.293115,19.956023
W00116,Galeria Piastów,+48-767212940,Europe,Poland,PL,Legnica,"22, Najświętszej Marii Panny, Stare Miasto, Przedmieście Głogowskie, Legnica, województwo dolnośląskie, 59-220, Polska",51.20935,16.16493
W00117,Galeria Tarnovia,+48-146466340,Europe,Poland,PL,Tarnów,"Galeria Tarnovia, 149, Krakowska, Kolonia Kolejowa, Krakowska, Tarnów, województwo małopolskie, 33-110, Polska",50.000924,20.957762
W00118,CH Ferio,+48-632474140,Europe,Poland,PL,Konin,"CH Ferio, 31a, Ogrodowa, Stare Miasto, gmina Stare Miasto, powiat koniński, województwo wielkopolskie, 62-571, Polska",52.18278,18.23168
W00119,CH Plaza,+48-756496840,Europe,Poland,PL,Zgorzelec,"H&M, 52A, Armii Krajowej, Zgorzelec, powiat zgorzelecki, województwo dolnośląskie, 59-900, Polska",51.15255,15.026
W00120,Torun Plaza,+48-566424140,Europe,Poland,PL,Torun,"Toruń Plaza, 90, Władysława Broniewskiego, Osiedle Mikołaja Reja, Bydgoskie Przedmieście, Toruń, województwo kujawsko-pomorskie, 87-100, Polska",53.015636,18.561561
W00121,CH Focus Park Zielona Góra,+48-684107940,Europe,Poland,PL,Zielona Góra,"Focus Park, 17, Wrocławska, Osiedle Tysiąclecia, Zielona Góra, województwo lubuskie, 65-427, Polska",51.9363014555422,15.51200866699219
W00122,Focus Park,+48-447159240,Europe,Poland,PL,Piotrków Trybunalski,"Focus Mall, 123, Juliusza Słowackiego, Osiedle Słowackiego Północ, Piotrków Trybunalski, województwo łódzkie, 97-300, Polska",51.41054,19.6675
W00123,CH Agora,+48-326618740,Europe,Poland,PL,Bytom,"H&M, Plac Tadeusza Kościuszki, Śródmieście, Bytom, Górnośląsko-Zagłębiowska Metropolia, województwo śląskie, 41-902, Polska",50.34755,18.918673
W00124,CH Auchan Poczesna,+48-343608440,Europe,Poland,PL,Czestochowa,"parking Auchan, Krakowska, Nowa Wieś, gmina Poczesna, powiat częstochowski, województwo śląskie, 42-262, Polska",50.730084,19.154564
W00125,Cuprum Arena,+48-767466740,Europe,Poland,PL,Lubin,"Helios, 20, Generała Władysława Sikorskiego, Osiedle Świerczewskiego, Lubin, powiat lubiński, województwo dolnośląskie, 59-300, Polska",51.39392,16.2066
W00126,CH Pogoria,+48-322686940,Europe,Poland,PL,Dąbrowa Górnicza,"Hebe, Pogoriowa Pasieka Miodna, Dębnik, Śródmieście, Dąbrowa Górnicza, Górnośląsko-Zagłębiowska Metropolia, województwo śląskie, 41-302, Polska",50.326716,19.183405
W00127,CH Gemini,+48-338130640,Europe,Poland,PL,Bielsko-Biała,"Gemini Park, 20, Leszczyńska, Leszczyny, Bielsko-Biała, województwo śląskie, 43-300, Polska",49.803507,19.050688
W00128,Galeria Victoria,+48-6323040,Europe,Poland,PL,Wałbrzych,"Galeria Victoria, 64, 1 Maja, Palestyna, Sobięcin, Wałbrzych, województwo dolnośląskie, 58-300, Polska",50.76617,16.26452
W00129,Port Lodz,+48-422981460,Europe,Poland,PL,Lodz,"H&M, Chocianowicka, Nad Nerem, Chocianowice, Łódź-Górna, Łódź, województwo łódzkie, 93-460, Polska",51.703707,19.41288
W00130,Galeria Ostrovia,+48-627320940,Europe,Poland,PL,Ostrów Wielkopolski,"Galeria Ostrovia, Kaliska, Krępa, Ostrów Wielkopolski, powiat ostrowski, województwo wielkopolskie, 63-400, Polska",51.65735,17.84607
W00131,CH Nova Park,+48-957140140,Europe,Poland,PL,Gorzów Wielkopolski,"NoVa Park, 2, Przemysłowa, Zawarcie, Gorzów Wielkopolski, województwo lubuskie, 66-400, Polska",52.72746,15.24289
W00132,Galeria Echo,+48-412012140,Europe,Poland,PL,Kielce,"Galeria Echo, 20, Świętokrzyska, Pocieszka, Bocianek, Kielce, województwo świętokrzyskie, 25-406, Polska",50.880565,20.648677
W00133,Galeria Sanowa,+48-167331240,Europe,Poland,PL,Przemyśl,"H&M, Bystrzyckich, Garbarze, Mikołaja Kopernika, Osiedle Mikołaja Kopernika, Przemyśl, województwo podkarpackie, 37-700, Polska",49.791254,22.782461
W00134,Galeria Jurajska,+48-343890840,Europe,Poland,PL,Czestochowa,"H&M, Kanał Kohna, Warta Pierwsza, Stare Miasto, Częstochowa, 42-201, Polska",50.808177,19.12998
W00135,CH Atrium Molo,+91-3119740,Europe,Poland,PL,Szczecin,"OMNI Molo, 73, Mieszka I, Słowieńsko, Pomorzany, Zachód, Szczecin, województwo zachodniopomorskie, 71-011, Polska",53.41117,14.52195
W00136,Galeria Twierdza,+48-846112440,Europe,Poland,PL,Zamość,"CH Galeria Twierdza, 10, Przemysłowa, Osiedle Jana Kilińskiego, Zamość, województwo lubelskie, 22-400, Polska",50.72743,23.26308
W00137,Pasaz Lódzki,+48-426388840,Europe,Poland,PL,Lodz,"Pasaż Łódzki, 30, Aleja Jana Pawła II, Stare Polesie, Politechniczna, Łódź-Polesie, Łódź, województwo łódzkie, 93-570, Polska",51.75065828578729,19.43966388702393
W00138,Galeria Handlowa Niwa,+48-338429640,Europe,Poland,PL,Oświęcim,"Planet Cinema, 1, Powstańców Śląskich, Osiedle Błonie, Oświęcim, powiat oświęcimski, województwo małopolskie, 32-600, Polska",50.043797,19.20666
W00139,Silesia City Center,+48-326056740,Europe,Poland,PL,Katowice,"Nail Room, Johna Baildona, Osiedle Ducha, Dąb, Katowice, Górnośląsko-Zagłębiowska Metropolia, województwo śląskie, 40-115, Polska",50.271877,19.002831
W00140,CH Magnolia,+48-713904440,Europe,Poland,PL,Wroclaw,"Zara Home, Dąbrówki, Popowice Południowe, Popowice, Gądów-Popowice Południowe, Wrocław, województwo dolnośląskie, 54-204, Polska",51.11913,16.98992
W00141,Galeria Nowy Rynek,+48-756402540,Europe,Poland,PL,Jelenia Gora,"25, Podwale, Jelenia Góra, województwo dolnośląskie, 58-500, Polska",50.90566,15.73296
W00142,Europa Centralna,+48-323008540,Europe,Poland,PL,Gliwice,"Europa Centralna, 315, Pszczyńska, Ligota Zabrska, Gliwice, Górnośląsko-Zagłębiowska Metropolia, województwo śląskie, 44-100, Polska",50.267667,18.717944
W00143,Galeria Szperk,+48-587789540,Europe,Poland,PL,Gdynia,"Galeria Szperk, 338, Pułkownika Stanisława Dąbka, Pogórze Górne, Pogórze, Gdynia, województwo pomorskie, 81-198, Polska",54.56534050627833,18.50240975942756
W00144,Galeria Tęcza,+48-627605640,Europe,Poland,PL,Kalisz,"H&M, 1, 3 Maja, Śródmieście I, Kalisz, województwo wielkopolskie, 62-800, Polska",51.76584,18.08794
W00145,Galeria Handlowa Starówka,+48-913913940,Europe,Poland,PL,Stargard Szczeciński,"8, Bolesława Chrobrego, Stare Miasto, Stargard, powiat stargardzki, województwo zachodniopomorskie, 73-110, Polska",53.33869,15.04435
W00146,Millenium Hall,+48-178655840,Europe,Poland,PL,Rzeszów,"Millenium Hall, 1, Aleja majora Wacława Kopisto, Nowe Miasto, Rzeszów, województwo podkarpackie, 35-959, Polska",50.027297,22.01479
W00147,Galeria Rzeszow,+48-177771140,Europe,Poland,PL,Rzeszów,"Świat Prasy, 44, Aleja Józefa Piłsudskiego, Pułaskiego, Rzeszów, województwo podkarpackie, 35-001, Polska",50.041932,21.999077
W00148,Dekada Sieradz,+48-438285040,Europe,Poland,PL,Sieradz,"Dekada, 11, Wojska Polskiego, Osiedle Jaworowe, Sieradz, powiat sieradzki, województwo łódzkie, 98-200, Polska",51.59759140201179,18.72590170291596
W00149,CH Dekada,+48-468193140,Europe,Poland,PL,Żyrardów,"38, 1 Maja, Podblich, Żyrardów, powiat żyrardowski, województwo mazowieckie, 96-300, Polska",52.05391,20.44075
W00150,Galeria Kociewska,+48-585330740,Europe,Poland,PL,Tczew,"Galeria Kociewska, 1, Pomorska, Nowe Miasto, Tczew, powiat tczewski, województwo pomorskie, 83-110, Polska",54.09670176674378,18.78801757650615
W00151,Galeria Olimpia,+48-447153040,Europe,Poland,PL,Bełchatów,"Kolejowa, Edwardów, Bełchatów, powiat bełchatowski, województwo łódzkie, 97-400, Polska",51.35337,19.37606
W00152,Galeria Lomianki,+48-223556340,Europe,Poland,PL,Łomianki,"Galeria Łomianki, 25, Brukowa, Prochownia, Łomianki, gmina Łomianki, powiat warszawski zachodni, województwo mazowieckie, 05-092, Polska",52.32529319626799,20.90339407244456
W00153,Galeria Trzy Korony,+48-184405640,Europe,Poland,PL,Nowy Sacz,"Galeria Trzy Korony, 80, Lwowska, Osiedle Gołąbkowice, Osiedle Westerplatte, Nowy Sącz, województwo małopolskie, 33-300, Polska",49.624085,20.707484
W00154,Galeria Siedlce,+48-257863640,Europe,Poland,PL,Siedlce,"Galeria Siedlce, 74, Józefa Piłsudskiego, Śródmieście, Siedlce, województwo mazowieckie, 08-110, Polska",52.16830031944403,22.2693865121164
W00155,M1 Radom,+48-483655940,Europe,Poland,PL,Radom,"M1 Radom, 28, Aleja Józefa Grzecznarowskiego, Młodzianów, Radom, województwo mazowieckie, 26-600, Polska",51.38227,21.16926
W00156,Plac Unii,+48-222040440,Europe,Poland,PL,Warsaw,"Plac Unii, 2, Puławska, Stary Mokotów, Mokotów, Warszawa, województwo mazowieckie, 02-566, Polska",52.21280629354498,21.02056011266086
W00157,Odrzańskie Ogrody,+48-775458440,Europe,Poland,PL,Kędzierzyn Koźle,"Odrzańskie Ogrody, Aleja Armii Krajowej, Osiedle 1000-lecia, Kędzierzyn-Koźle, powiat kędzierzyńsko-kozielski, 47-224, Polska",50.34118788597151,18.19018363952637
W00158,CH Felicity,+48-814528940,Europe,Poland,PL,Lublin,"C&A, 32, Aleja Wincentego Witosa, Felin, Lublin, województwo lubelskie, 20-315, Polska",51.23224335926496,22.61409312499308
W00159,M1,+48-426648640,Europe,Poland,PL,Lodz,"M1 Łódź, 27/29, Brzezińska, Stoki-Sikawa-Podgórze, Sikawa, Łódź-Widzew, Łódź, województwo łódzkie, 92-103, Polska",51.79247257879196,19.50978214554891
W00160,Galeria Debicka,+48-146707840,Europe,Poland,PL,Dębica,"H&M, 2, Księdza Alojzego Nosala, Centrum, Dębica, powiat dębicki, województwo podkarpackie, 39-200, Polska",50.046559,21.412908
W00161,CH HERMES,+41-3956140,Europe,Poland,PL,Skarżysko-Kamienna,"Hermes, 18, Zygmunta Krasińskiego, Osiedle Piłsudskiego, Skarżysko-Kamienna, powiat skarżyski, województwo świętokrzyskie, 26-110, Polska",51.114482,20.861719
W00162,Galeria Mokotow,+48-221613940,Europe,Poland,PL,Warsaw,"Cash4You, Wołoska, Osiedle Służewiec Południowy, Ksawerów, Mokotów, Warszawa, województwo mazowieckie, 02-675, Polska",52.1789470763327,21.00379154338827
W00163,CH Marino,+48-713208340,Europe,Poland,PL,Wroclaw,"Vive Profit, Paprotna, Różanka, Polanowice-Poświętne-Ligota, Wrocław, województwo dolnośląskie, 51-117, Polska",51.15217,17.02677
W00164,MMG Center Ciechanow,+48-23-680-89-40,Europe,Poland,PL,Ciechanów,"65, Ciechanowska, Władysławowo, gmina Opinogóra Górna, powiat ciechanowski, województwo mazowieckie, 06-406, Polska",52.881338,20.656341
W00165,Sadyba Best Mall,+48-223703940,Europe,Poland,PL,Warsaw,"GreenWay - Sadyba Best Mall Warszawa, 31, Powsińska, Osiedle Sadyba, Sadyba, Mokotów, Warszawa, województwo mazowieckie, 02-903, Polska",52.1881342149194,21.06059032266103
W00166,Galeria Bursztynowa,+48-297444340,Europe,Poland,PL,Ostrołęka,"Galeria Bursztynowa, 28, Generała Augusta Emila Fieldorfa ""Nila"", Osiedle Centrum, Śródmieście II, Ostrołęka, województwo mazowieckie, 07-410, Polska",53.075384,21.57813
W00167,Centrum Riviera,+48-587790340,Europe,Poland,PL,Gdynia,"ActiveJet, Kazimierza Górskiego, Wzgórze Świętego Maksymiliana, Gdynia, województwo pomorskie, 81-304, Polska",54.50327812750908,18.53199247443376
W00168,Galeria Amber,+48-627688140,Europe,Poland,PL,Kalisz,"Galeria Amber, 82, Górnośląska, Osiedle Adama Asnyka, Kalisz, województwo wielkopolskie, 62-800, Polska",51.74365,18.06944
W00169,Brama Pomorza,+48-525862540,Europe,Poland,PL,Chojnice,"Apart, 2A, Podmiejska, Lipienice, gmina Chojnice, powiat chojnicki, województwo pomorskie, 89-620, Polska",53.69338408828372,17.61711467340367
W00170,Galeria Bronowice,+48-126233440,Europe,Poland,PL,Krakow,"Galeria Bronowice, 61, Stawowa, Bronowice Wielkie, Prądnik Biały, Kraków, województwo małopolskie, 31-346, Polska",50.092169,19.896614
W00171,Galeria Corso,+91-3275140,Europe,Poland,PL,Świnoujście,"Jarosława Dąbrowskiego, Osiedle Wyspiańskiego, Śródmieście, Świnoujście, województwo zachodniopomorskie, 72-600, Polska",53.90998,14.24641
W00172,Posnania,+48-616461840,Europe,Poland,PL,Poznan,"Posnania, 1, Pleszewska, Miasteczko, Łacina, Rataje, Poznań, województwo wielkopolskie, 61-136, Polska",52.39624,16.95487
W00173,Galeria Kasztanowa,+48-672119640,Europe,Poland,PL,Pila,"H&M, 99, Aleja Powstańców Wielkopolskich, Zamość, Piła, powiat pilski, województwo wielkopolskie, 64-920, Polska",53.1591,16.75607
W00174,VIVO! Piła,+67-3506740,Europe,Poland,PL,Pila,"H&M, 14 Lutego, Śródmieście, Piła, powiat pilski, województwo wielkopolskie, 64-920, Polska",53.14466,16.74547
W00175,CH Plaza Ruda Slaska,+48-327367740,Europe,Poland,PL,Ruda Śląska,"Ruda Śląska Plaza, 310, 1 Maja, Wirek, Ruda Śląska, Górnośląsko-Zagłębiowska Metropolia, województwo śląskie, 41-710, Polska",50.275481,18.865597
W00176,Brama Mazur,+48-7395004,Europe,Poland,PL,Ełk,"Brama Mazur, 1, Jarosława Dąbrowskiego, Osiedle Zatorze, Ełk, powiat ełcki, województwo warmińsko-mazurskie, 19-300, Polska",53.82278998224304,22.36176066435291
W00177,Dekada Malbork,+48-556259440,Europe,Poland,PL,Malbork,"Galeria Dekada, 9, Aleja Rodła, Kałdowo, Malbork, powiat malborski, województwo pomorskie, 82-200, Polska",54.03603237442341,19.03456453071863
W00178,Forum Gdansk,+48-587708940,Europe,Poland,PL,Gdansk,"Forum Gdańsk, 7, Targ Sienny, Piaskownia, Śródmieście, Gdańsk, województwo pomorskie, 80-806, Polska",54.34911660750592,18.64329654456537
W00179,CH Ikea Lublin,+48-814521940,Europe,Poland,PL,Lublin,"Aleja Spółdzielczości Pracy, Czechów Północny, Lublin, województwo lubelskie, 20-960, Polska",51.28158,22.57428
W00180,Zielone Arkady,+48-523399440,Europe,Poland,PL,Bydgoszcz,"Hugo Boss, 1, Wojska Polskiego, Wzgórze Wolności, Bydgoszcz, województwo kujawsko-pomorskie, 85-171, Polska",53.11538056827956,18.00980838773251
W00181,CH Serenada,+48-123411240,Europe,Poland,PL,Krakow,"Centrum Serenada, 41, Generała Tadeusza Bora-Komorowskiego, Czyżyny, Kraków, województwo małopolskie, 31-876, Polska",50.088771,19.986762
W00182,Auchan Hetmanska,+48-858762440,Europe,Poland,PL,Bialystok,"Auchan Hetmańska, 16, Hetmańska, Marczuk, Młodych, Białystok, województwo podlaskie, 15-727, Polska",53.13467119454072,23.11792731285095
W00183,Galeria Warminska,+48-897224140,Europe,Poland,PL,Olsztyn,"Juliana Tuwima, Pozorty, Brzeziny, Olsztyn, województwo warmińsko-mazurskie, 10-088, Polska",53.755018,20.485392
W00184,Vendo Park Nysa,+48-774022640,Europe,Poland,PL,Nysa,"Vendo Park, 7, Marszałka Józefa Piłsudskiego, Południe, Nysa, gmina Nysa, powiat nyski, województwo opolskie, 48-303, Polska",50.46627,17.34313
W00185,Blue City,+48-225891340,Europe,Poland,PL,Warsaw,"Blue City, 179, Aleje Jerozolimskie, Szczęśliwice, Ochota, Warszawa, województwo mazowieckie, 02-222, Polska",52.21218569355641,20.95608470090031
W00186,Galeria Neptun,+48-587685140,Europe,Poland,PL,Starogard Gdański,"Hair M Club, 7, Pomorska, Osiedle Kopernika, Starogard Gdański, powiat starogardzki, województwo pomorskie, 83-200, Polska",53.96382617772799,18.53048254872351
W00187,Sonata Park,+48-468649440,Europe,Poland,PL,Sochaczew,"2;E 30, Wójtówka, gmina Sochaczew, powiat sochaczewski, województwo mazowieckie, 96-500, Polska",52.22763557545335,20.26714364152531
W00188,Stop Shop Legnica,+48-767286470,Europe,Poland,PL,Legnica,"H&M, Roberta Schumana, Bieśnik, Osiedle Henryka Sienkiewicza, Legnica, województwo dolnośląskie, 59-220, Polska",51.18539,16.17262
W00189,MMG Centers Kutno,+48-242530040,Europe,Poland,PL,Kutno,"Olika, Tadeusza Kościuszki, Kościuszków, Kutno, powiat kutnowski, województwo łódzkie, 99-301, Polska",52.2450658230192,19.37484043039444
W00190,Fabryka Wolomin,+48-224339540,Europe,Poland,PL,Wołomin,"Galeria Wołomin, 2, Geodetów, Kolonia Gródek, Wołomin, gmina Wołomin, powiat wołomiński, województwo mazowieckie, 05-200, Polska",52.3563714265679,21.25768661499023
W00191,Galeria Morena,+48-583042340,Europe,Poland,PL,Gdansk,"Zdrofit, 102A, Franciszka Schuberta, Suchanino, Gdańsk, województwo pomorskie, 80-172, Polska",54.35144545313764,18.59442381741212
W00192,Galeria Navigator,+48-177745240,Europe,Poland,PL,Mielec,"Galeria Navigator - Parking, Rondo Rotmistrza Witolda Pileckiego, Smoczka I, Mielec, powiat mielecki, województwo podkarpackie, 39-316, Polska",50.288471,21.460713
W00193,Galeria Galena,+48-327589540,Europe,Poland,PL,Jaworzno,"CHR Galeria Galena, 59, Grunwaldzka, Osiedle Podwale, Jaworzno Śródmieście, Śródmieście, Bory i Niedzieliska, Jaworzno, 43-600, Polska",50.203259,19.268789
W00194,Galeria Tomaszów,+48-447153540,Europe,Poland,PL,Tomaszow Mazowiecki,"Galeria Tomaszów, 1, Warszawska, Śródmieście, Tomaszów Mazowiecki, powiat tomaszowski, województwo łódzkie, 97-200, Polska",51.53449,20.00759
W00195,Galeria Polnocna,+48-222739140,Europe,Poland,PL,Warsaw,"Salad Story, Światowida, Nowy Tarchomin, Tarchomin, Białołęka, Warszawa, województwo mazowieckie, 03-188, Polska",52.3182761519023,20.96698519833683
W00196,CH Promenada,+48-226117680,Europe,Poland,PL,Warsaw,"Intersport, Ostrobramska, Grochów-Południowy, Gocław, Praga-Południe, Warszawa, województwo mazowieckie, 04-175, Polska",52.23332,21.10643
W00197,CH Ferio Wawer,+48-222058160,Europe,Poland,PL,Warsaw,"Ferio Wawer, 4, Kazimierza Szpotańskiego, Międzylesie, Wawer, Warszawa, województwo mazowieckie, 04-760, Polska",52.2074,21.16865
W00198,Vivo! Stalowa Wola,+48-153062340,Europe,Poland,PL,Stalowa Wola,"Agata Meble, 40, Fryderyka Chopina, Osiedle Widok, Rozwadów, Stalowa Wola, powiat stalowowolski, województwo podkarpackie, 37-450, Polska",50.587168,22.063862
W00199,IKEA Bielany,+48-717812640,Europe,Poland,PL,Wroclaw,"Aleja Bielany, A4;5, Zabrodzie, gmina Kąty Wrocławskie, powiat wrocławski, województwo dolnośląskie, 52-327, Polska",51.04894,16.9586
W00200,Galeria A2,+48-612261840,Europe,Poland,PL,Poznan,"Pobawimysię?, Głogowska, Kotowo, Fabianowo-Kotowo, Poznań, województwo wielkopolskie, 60-004, Polska",52.35313,16.84107
W00201,Emka Koszalin,+48-947112740,Europe,Poland,PL,Koszalin,"Galeria EMKA, Akademicka, Osiedle imienia Tadeusza Kotarbińskiego, Osiedle Na Skarpie, Koszalin, województwo zachodniopomorskie, 75-352, Polska",54.20717280910856,16.18641728598323
W00202,Galeria Zdroj Carrefour,+48-324759540,Europe,Poland,PL,Jastrzębie Zdroj,"Natura, Podhalańska, Jastrzębie-Zdrój, województwo śląskie, 44-335, Polska",49.940087,18.594659
W00203,Liwa,+48-552711240,Europe,Poland,PL,Kwidzyn,"Centrum Handlowe LIWA, 19, Marii Konopnickiej, Osiedle Bema, Kwidzyn, powiat kwidzyński, województwo pomorskie, 82-500, Polska",53.73397553800498,18.93170579200478
W00204,Galeria Stela,+48-334727440,Europe,Poland,PL,Cieszyn,"Empik, Wojciecha Korfantego, Osiedle Liburnia, Cieszyn, powiat cieszyński, województwo śląskie, 43-400, Polska",49.74972047378133,18.63972488342481
W00205,Centrum Handlowe Osowa,+48-583473140,Europe,Poland,PL,Gdansk,"New Men Style, 48, Spacerowa, Owczary, Osowa, Gdańsk, województwo pomorskie, 80-299, Polska",54.42569225208067,18.49096912038954
W00206,Centrun Handlowe Nowa Stacja,+48-222741940,Europe,Poland,PL,Pruszkow,"Bohaterów Warszawy, Tworki, Pruszków, powiat pruszkowski, województwo mazowieckie, 05-800, Polska",52.1704725,20.8118862
W00207,CH Twierdza Kłodzko,+48-746604041,Europe,Poland,PL,Klodzko,"Biedronka, 2, Noworudzka, Ustronie, Kłodzko, powiat kłodzki, województwo dolnośląskie, 57-300, Polska",50.45293,16.63815
W00208,Quick Park Myslowice,+48-327369140,Europe,Poland,PL,Myslowice,"Centrum Handlowe Quick Park Mysłowice, 64, Katowicka, Bończyk, Mysłowice, Górnośląsko-Zagłębiowska Metropolia, 41-400, Polska",50.250044,19.117585
W00209,CH Mlociny,+48-222704440,Europe,Poland,PL,Warsaw,"Galeria Młociny, 15, Zgrupowania AK ""Kampinos"", Huta, Bielany, Warszawa, województwo mazowieckie, 01-943, Polska",52.29688,20.931974
W00210,CH Wroclavia,+48-717483140,Europe,Poland,PL,Wroclaw,"H&M, Sucha, Glinianki, Huby, Wrocław, województwo dolnośląskie, 50-086, Polska",51.09634,17.03633
W00211,Gemini Park Tychy,+48-327339840,Europe,Poland,PL,Tychy,"Gemini Park Tychy, 2C, Towarowa, Klachowice, Cielmice, Tychy, Górnośląsko-Zagłębiowska Metropolia, 43-100, Polska",50.096601,19.009082
W00212,Tesco Zielona Góra,+48-684543740,Europe,Poland,PL,Zielona Góra,"Galeria Zielona Dolina, 2a, Energetyków, Osiedle Batorego, Zielona Góra, województwo lubuskie, 65-729, Polska",51.94969,15.49575
W00213,VIVO! Krosno,+48-134334640,Europe,Poland,PL,Krosno,"Generała Władysława Andersa, Dzielnica Suchodół, Krosno, województwo podkarpackie, 38-401, Polska",49.676416,21.77574
W00214,Galeria Askana,+48-957372840,Europe,Poland,PL,Gorzów Wielkopolski,"Galeria Askana, 102, Aleja Konstytucji 3 Maja, Nowe Miasto, Sródmieście, Gorzów Wielkopolski, województwo lubuskie, 66-400, Polska",52.73101,15.22609
W00215,Tesco Tarnowskie Gory,+48-323914640,Europe,Poland,PL,Tarnowskie Góry,"220, Zagórska, Śródmieście – Centrum, Tarnowskie Góry, powiat tarnogórski, Górnośląsko-Zagłębiowska Metropolia, 42-600, Polska",50.454707,18.832003
W00216,C.C. Cascaishopping,+351-800780330,Europe,Portugal,PT,Lisbon,"Pull & Bear, A 16;IC 30, Quinta das Salgadas, Atrozela, Alcabideche, Cascais, Lisboa, 2645-543, Portugal",38.73888759683804,-9.39940452575684
W00217,C.C. Loures Shopping,+351-800780330,Europe,Portugal,PT,Lisbon,"United Colors of Benetton, Ciclovia Parque da Cidade de Loures / Avenida das Descobertas / LoureShopping / Infantado, Infantado, Loures, Lisboa, 2670-457, Portugal",38.83471011460701,-9.15584921836853
W00218,C.C. Vasco Da Gama,+351-800780330,Europe,Portugal,PT,Lisbon,"Sanjam, Avenida do Índico, Quinta das Laranjeiras, Parque das Nações, Lisboa, 1990-094, Portugal",38.76800423017593,-9.09710884094238
W00219,Rotunda do Infante,+351-800780330,Europe,Portugal,PT,Fuchal,"Edifício Minas Gerais, 2, Avenida do Infante, Ilhéus, Sé, Funchal, Madeira, 9000-541, Portugal",32.64665643186647,-16.91328048706055
W00220,CC Algarve Shopping,+351-800780330,Europe,Portugal,PT,Albufeira,"AlgarveShopping, EN 125, Quinta dos Álamos, Valverde, Guia, Albufeira, Faro, 8201-878, Portugal",37.12795564229867,-8.2804086613769
W00221,MEGA SC,+7-4959812790,Europe,Russian Federation,RU,Khimki,"проспект Мельникова, Родионово, микрорайон ИКЕА, Планерная, Химки, городской округ Химки, Московская область, Центральный федеральный округ, 141410, Россия",55.91044490435585,37.39660263061523
W00222,МЕГА Белая Дача,+7-8005007800,Europe,Russian Federation,RU,Moscow,"Мега Белая Дача, 1-й Покровский проезд, микрорайон Белая Дача, Котельники, городской округ Котельники, Московская область, Центральный федеральный округ, 140054, Россия",55.655192,37.842244
W00223,ТРК Вегас Каширское,+7-8005007800,Europe,Russian Federation,RU,Moscow,"Торгово-развлекательный центр ""Вегас"", 1, МКАД, 24-й километр, Орехово-Борисово Южное, посёлок Совхоза имени Ленина, Москва, Центральный федеральный округ, 142715, Россия",55.58717400444387,37.72550582885742
W00224,ТЦ Горизонт,+7-8005007800,Europe,Russian Federation,RU,Rostov-on-Don,"Мегацентр Горизонт, 32, проспект Михаила Нагибина, Дачный, Ворошиловский район, Ростов-на-Дону, городской округ Ростов-на-Дону, Ростовская область, Южный федеральный округ, 344068, Россия",47.25992231093763,39.71965312957764
W00225,NW Сити-парк Град,+7-8005007800,Europe,Russian Federation,RU,Voronezh,"Amazing red, Парковая улица, Солнечный, Центральный район, Воронеж, Яменское сельское поселение, Рамонский район, Воронежская область, Центральный федеральный округ, 394066, Россия",51.78860357143075,39.20479774475098
W00226,ТЦ Южный,+7-8005007800,Europe,Russian Federation,RU,Kazan,"Южный, 91, проспект Победы, Азино-2, Советский район, Казань, городской округ Казань, Татарстан, Приволжский федеральный округ, 420100, Россия",55.76829331551009,49.21705484390259
W00227,ТЦ Гринвич,+7-8005007800,Europe,Russian Federation,RU,Ekaterinburg,"Гринвич, 46, улица 8 Марта, Кольцо Екатерины, Ленинский район, Екатеринбург, городской округ Екатеринбург, Свердловская область, Уральский федеральный округ, 620219, Россия",56.83005186049757,60.59919118881226
W00228,ТРК СБС Мегамолл,+7-8005007800,Europe,Russian Federation,RU,Krasnodar,"Мегамолл, 79/1, Уральская улица, Карасунский округ, Краснодар, городской округ Краснодар, Краснодарский край, Южный федеральный округ, 350080, Россия",45.03377462344862,39.05242681503296
W00229,ТЦ Парк Хаус,+7-8005007800,Europe,Russian Federation,RU,Kazan,"Парк-Хаус, 46/33, проспект Ямашева, Ново-Савиновский район, Казань, городской округ Казань, Татарстан, Приволжский федеральный округ, 420124, Россия",55.829592,49.11861
W00230,ТЦ Парк Хаус,+7-8005007800,Europe,Russian Federation,RU,Ekaterinburg,"Дефиле, улица Сулимова, Пионерский, Кировский район, Екатеринбург, городской округ Екатеринбург, Свердловская область, Уральский федеральный округ, 620041, Россия",56.86339038774243,60.63099145889282
W00231,ТЦ Парк Хаус,+7-8005007800,Europe,Russian Federation,RU,Togliatti,"Парк Хаус, 6, Автозаводское шоссе, Центральный район, Тольятти, городской округ Тольятти, Самарская область, Приволжский федеральный округ, 445004, Россия",53.54251129764052,49.39012559786221
W00232,SC Marmelad,+7-8005007800,Europe,Russian Federation,RU,Volgograd,"Мармелад, 110Б, улица Землячки, Дзержинский район, Волгоград, городской округ Волгоград, Волгоградская область, Южный федеральный округ, 400137, Россия",48.74406895306608,44.51958650592509
W00233,МЕГА Уфа,+7-8005007800,Europe,Russian Federation,RU,Ufa,"ТЦ «Мега», 174, Академика Сулейманова улица, Кировский район, Уфа, городской округ Уфа, Башкортостан, Приволжский федеральный округ, 450018, Россия",54.675216,55.930116
W00234,ТЦ Красная площадь,+7-8005007800,Europe,Russian Federation,RU,Krasnodar,"Бургер Кинг, улица Дзержинского, Прикубанский округ, Краснодар, городской округ Краснодар, Краснодарский край, Южный федеральный округ, 350000, Россия",45.1018698,38.9836053
W00235,МЕГА Екатеринбург,+7-8005007800,Europe,Russian Federation,RU,Ekaterinburg,"ТЦ «Мега», 87, улица Металлургов, Верх-Исетский район, Екатеринбург, городской округ Екатеринбург, Свердловская область, Уральский федеральный округ, 620043, Россия",56.82460409826916,60.50535678863525
W00236,ТЦ Премьер,+7-4912575560,Europe,Russian Federation,RU,Ryazan,"The iStore, 21, Московское шоссе, Железнодорожный район, городской округ Рязань, Рязанская область, Центральный федеральный округ, 390013, Россия",54.6345174720075,39.68843221664429
W00237,ТЦ Сити Молл,+7-8005007800,Europe,Russian Federation,RU,Surgut,"42, улица Профсоюзов, городской округ Сургут, Ханты-Мансийский автономный округ — Югра, Уральский федеральный округ, 628415, Россия",61.2666667,73.4
W00238,ТЦ Седьмое небо,+7-8005007800,Europe,Russian Federation,RU,Nizhniy Novgorod,"Седьмое небо, 1, улица Бетанкура, Мещерское озеро, Канавинский район, Нижний Новгород, городской округ Нижний Новгород, Нижегородская область, Приволжский федеральный округ, 603086, Россия",56.338826,43.954938
W00239,ТЦ Моремолл,+7-8005007800,Europe,Russian Federation,RU,Sochi,"7, улица Новая Заря, Шанхай, Центральный внутригородской район, Сочи, городской округ Сочи, Краснодарский край, Южный федеральный округ, 354000, Россия",43.60712,39.732293
W00240,ТЦ Радуга,+7-8005007800,Europe,Russian Federation,RU,Ekaterinburg,"33 пингвина, 94, улица Репина, ВИЗ, Верх-Исетский район, Екатеринбург, городской округ Екатеринбург, Свердловская область, Уральский федеральный округ, 620131, Россия",56.817092,60.538242
W00241,ТЦ Отрада,+7-8005007800,Europe,Russian Federation,RU,Moscow,"Торговый центр ""Отрада"", вл2, Пятницкое шоссе, Отрадное, городской округ Красногорск, Московская область, Центральный федеральный округ, 143442, Россия",55.875558,37.333705
W00242,ТЦ Коллаж,+7-8005007800,Europe,Russian Federation,RU,Penza,"Casada, 1В, проспект Строителей, Цыганский посёлок, Октябрьский район, городской округ Пенза, Пензенская область, Приволжский федеральный округ, 440066, Россия",53.220543,44.951164
W00243,ТЦ Аура,+7-8005007800,Europe,Russian Federation,RU,Surgut,"ТРЦ Аура, 1, Нефтеюганское шоссе, Лунный, Сургут, Ханты-Мансийский автономный округ — Югра, Уральский федеральный округ, 628406, Россия",61.277667,73.365705
W00244,ТЦ Планета,+7-8005007800,Europe,Russian Federation,RU,Ufa,"Планета, 20, улица Энтузиастов, Глумилино, Октябрьский район, Уфа, городской округ Уфа, Башкортостан, Приволжский федеральный округ, 450000, Россия",54.756601,56.034584
W00245,ТЦ Галерея Вояж,+7-8005007800,Europe,Russian Federation,RU,Tyumen,"Мир Кубиков, 94, улица Герцена, Центральный административный округ, Тюмень, городской округ Тюмень, Тюменская область, Уральский федеральный округ, 625000, Россия",57.14604,65.541931
W00246,ТРЦ Глобус,+7-8005007800,Europe,Russian Federation,RU,Ekaterinburg,"Lorena, Павлодарская улица, Глобус, Уктус, Чкаловский район, Екатеринбург, городской округ Екатеринбург, Свердловская область, Уральский федеральный округ, 620076, Россия",56.78885699811491,60.64884424209595
W00247,ТЦ Красный кит,+7-8005007800,Europe,Russian Federation,RU,Mytishchi,"Красный Кит, улица Воровского, микрорайон Шараповка, Мытищи, городской округ Мытищи, Московская область, Центральный федеральный округ, 141006, Россия",55.91610909853821,37.75882959365845
W00248,ТРЦ РИО,+7-8005007800,Europe,Russian Federation,RU,Moscow,"Ecco, 109, Ленинский проспект, Обручевский район, Москва, Центральный федеральный округ, 119421, Россия",55.66421285155622,37.51176595687866
W00249,МЕГА Ростов-на-Дону,+7-8005007800,Europe,Russian Federation,RU,Rostov-on-Don,"«Дон», Аксай, Аксайское городское поселение, Аксайский район, Ростовская область, Южный федеральный округ, 346720, Россия",47.28988397829794,39.84681129455566
W00250,МЕГА Адыгея,+7-8005007800,Europe,Russian Federation,RU,Krasnodar,"Мега Адыгея-Кубань, 27, Тургеневское шоссе, Новая Адыгея, Старобжегокайское сельское поселение, Тахтамукайский район, Адыгея, Южный федеральный округ, 385132, Россия",45.01369563387567,38.92966552846679
W00251,ТЦ Райкин Плаза,+7-8005007800,Europe,Russian Federation,RU,Moscow,"Твое, 6 к1, Шереметьевская улица, район Марьина Роща, Москва, Центральный федеральный округ, 129594, Россия",55.79526226464035,37.61677980422974
W00252,ТЦ Горки,+7-8005007800,Europe,Russian Federation,RU,Chelyabinsk,"ТРК «Горки», 136, Артиллерийская улица, Тракторозаводский район, Челябинск, Челябинский городской округ, Челябинская область, Уральский федеральный округ, 454007, Россия",55.16519132359849,61.4311695098877
W00253,ТЦ Аура,+7-8005007800,Europe,Russian Federation,RU,Yaroslavl,"Marmalato, улица Пушкина, Кировский район, Ярославль, городской округ Ярославль, Ярославская область, Центральный федеральный округ, 150000, Россия",57.627853,39.871369
W00254,ТЦ Амбар,+7-8005007800,Europe,Russian Federation,RU,Samara,"Амбар, 5, Южное шоссе, Куйбышевский район, Самара, городской округ Самара, Самарская область, Приволжский федеральный округ, 443085, Россия",53.14163852541124,50.17481298990469
W00255,ТЦ Галерея Краснодар,+7-8005007800,Europe,Russian Federation,RU,Krasnodar,"Билайн, Северная улица, Западный округ, Краснодар, городской округ Краснодар, Краснодарский край, Южный федеральный округ, 350000, Россия",45.03977922022943,38.97458910942078
W00256,МЕГА Казань,+7-8005007800,Europe,Russian Federation,RU,Kazan,"Ozon box, улица Петра Полушкина, Жилой комплекс «Мой ритм», Азино-1, Советский район, Казань, городской округ Казань, Татарстан, Приволжский федеральный округ, 420100, Россия",55.780915,49.21318799999995
W00257,ТЦ Реутов Парк,+7-8005007800,Europe,Russian Federation,RU,Reutov,"Кофейная Кантата, 45, Носовихинское шоссе, 10-й микрорайон, Южный Реутов, Реутов, городской округ Реутов, Московская область, Центральный федеральный округ, 111672, Россия",55.75233508790337,37.88770923658444
W00258,ТРК Вегас Крокус Сити,+7-8005007800,Europe,Russian Federation,RU,Moscow,"restore:, 12, Международная улица, Павшинская Пойма, городской округ Красногорск, Московская область, Центральный федеральный округ, 143410, Россия",55.82080629511982,37.38745354306025
W00259,ТЦ Изумрудный город,+7-8005007800,Europe,Russian Federation,RU,Tomsk,"Изумрудный город, 13Б, Комсомольский проспект, Октябрьский район, Томск, городской округ Томск, Томская область, Сибирский федеральный округ, 634003, Россия",56.48840593389301,84.9787315476135
W00260,ТЦ Планета,+7-8005007800,Europe,Russian Federation,RU,Krasnoyarsk,"Планета, 77, улица 9 Мая, Взлётка, Советский район, Красноярск, городской округ Красноярск, Красноярский край, Сибирский федеральный округ, 660118, Россия",56.05103318370036,92.90252057536622
W00261,ТЦ Водный,+7-8005007800,Europe,Russian Federation,RU,Moscow,"Сударь, 5 к1, Головинское шоссе, Головинский район, Москва, Центральный федеральный округ, 125212, Россия",55.84044949942368,37.49241943914797
W00262,ТЦ Титан Арена,+7-8005007800,Europe,Russian Federation,RU,Arkhangelsk,"Поморская улица, Ломоносовский округ, Архангельск, городской округ Архангельск, Архангельская область, Северо-Западный федеральный округ, 163046, Россия",64.54264326199804,40.53617802573103
W00263,ТЦ Акваполис,+7-8005007800,Europe,Russian Federation,RU,Pskov,"Pandora, 19, улица Кузбасской Дивизии, Завеличье, Псков, Псковская область, Северо-Западный федеральный округ, 180016, Россия",57.823525,28.289592
W00264,ТРЦ Макси,+7-8005007800,Europe,Russian Federation,RU,Arkhangelsk,"Первомайская улица, Ленинградский проспект, Майская Горка, Архангельск, городской округ Архангельск, Архангельская область, Северо-Западный федеральный округ, 163009, Россия",64.525066,40.602825
W00265,ТРЦ Ривьера,+7-8005007800,Europe,Russian Federation,RU,Lipetsk,"улица Катукова, Октябрьский округ, городской округ Липецк, Липецкая область, Центральный федеральный округ, 398036, Россия",52.593221,39.504582
W00266,ТЦ Планета,+7-8005007800,Europe,Russian Federation,RU,Novokuznetsk,"Sokolov, 55, улица Кирова, Центральный район, Новокузнецк, Новокузнецкий городской округ, Кемеровская область, Сибирский федеральный округ, 654007, Россия",53.759137,87.138208
W00267,ТЦ Аура,+7-8005007800,Europe,Russian Federation,RU,Novosibirsk,"Q Store, 5, Военная улица, Депутатский, Центральный район, Новосибирск, городской округ Новосибирск, Новосибирская область, Сибирский федеральный округ, 630000, Россия",55.02868872428232,82.93641337456052
W00268,ТРЦ Макси,+7-8005007800,Europe,Russian Federation,RU,Smolensk,"улица Ломоносова, Промышленный район, городской округ Смоленск, Смоленская область, Центральный федеральный округ, 214035, Россия",54.76846625055742,32.08021869354252
W00269,ТЦ Италмасc,+7-8005007800,Europe,Russian Federation,RU,Izhevsk,"улица Короткова, Ярушки, Восточный, Устиновский район, городской округ Ижевск, Удмуртия, Приволжский федеральный округ, 426065, Россия",56.869373,53.278188
W00270,ТЦ Лотос Плаза,+7-8005007800,Europe,Russian Federation,RU,Petrozavodsk,"Лотос Плаза, 47А, Лесной проспект, Древлянка, Петрозаводск, Петрозаводский городской округ, Карелия, Северо-Западный федеральный округ, 185014, Россия",61.775513,34.307736
W00271,ТЦ Арена,+7-8005007800,Europe,Russian Federation,RU,Barnaul,"ТРЦ Арена, 188, Павловский тракт, Индустриальный район, Барнаул, городской округ Барнаул, Алтайский край, Сибирский федеральный округ, 656922, Россия",53.349662,83.637206
W00272,ТЦ Happy Молл,+7-8005007800,Europe,Russian Federation,RU,Saratov,"Хеппи молл, 2, Вольский тракт, городской округ Саратов, Саратовская область, Приволжский федеральный округ, 410000, Россия",51.62053102894265,45.97178335665899
W00273,ТЦ Алмаз,+7-8005007800,Europe,Russian Federation,RU,Chelyabinsk,"Ormatek, Копейское шоссе, Ленинский район, Челябинск, Челябинский городской округ, Челябинская область, Уральский федеральный округ, 454010, Россия",55.14554,61.452123
W00274,ТЦ Мари,+7-8005007800,Europe,Russian Federation,RU,Moscow,"36,6, Поречная улица, район Марьино, Москва, Центральный федеральный округ, 109469, Россия",55.65019777406026,37.76970219008786
W00275,Центральный Детский Магазин,+7-8005007800,Europe,Russian Federation,RU,Moscow,"ВТБ, 5с1, Театральный проезд, 6, 62, Мещанский район, Москва, Центральный федеральный округ, 109012, Россия",55.7601567,37.62461189999999
W00276,ТЦ Бон Пассаж,+7-8005007800,Europe,Russian Federation,RU,Novorossiysk,"Анапское шоссе, Приморский район, Новороссийск, городской округ Новороссийск, Краснодарский край, Южный федеральный округ, 353907, Россия",44.72936694919947,37.75729560852051
W00277,SC Pioner,+7-8005007800,Europe,Russian Federation,RU,Ulan-Ude,"ТРЦ Пионер, 32 к17, Корабельная улица, Батарейка, Советский район, Улан-Удэ, городской округ Улан-Удэ, Республика Бурятия, Дальневосточный федеральный округ, 670000, Россия",51.834891,107.572977
W00278,ТЦ Сильвер Молл,+7-8005007800,Europe,Russian Federation,RU,Irkutsk,"Сильвер Молл, 3/5, улица Сергеева, Синюшина гора, Свердловский административный округ, Иркутск, городской округ Иркутск, Иркутская область, Сибирский федеральный округ, 664043, Россия",52.26533787185071,104.2264048630127
W00279,ТЦ Макси,+7-8005007800,Europe,Russian Federation,RU,Tula,"Пролетарская набережная, Пролетарский территориальный округ, Тула, городской округ Тула, Тульская область, Центральный федеральный округ, 300001, Россия",54.19540960373948,37.63355478582764
W00280,ТЦ Пионер,+7-8005007800,Europe,Russian Federation,RU,Barnaul,"ТРЦ «Пионер», 102В, проспект Ленина, Октябрьский район, Барнаул, городской округ Барнаул, Алтайский край, Сибирский федеральный округ, 656000, Россия",53.361631,83.763368
W00281,ТЦ Серебряный город,+7-8005007800,Europe,Russian Federation,RU,Ivanovo,"Сбербанк, 32, улица 8 Марта, Октябрьский район, Иваново, городской округ Иваново, Ивановская область, Центральный федеральный округ, 153000, Россия",57.005578,40.984282
W00282,ТЦ Галактика,+7-8005007800,Europe,Russian Federation,RU,Barnaul,"ТЦ «Galaxy», 117, проспект Строителей, Железнодорожный район, Барнаул, городской округ Барнаул, Алтайский край, Сибирский федеральный округ, 656000, Россия",53.34276,83.75225
W00283,ТЦ Охта Молл,+7-8005007800,Europe,Russian Federation,RU,St Petersburg,"ТРК «Охта-Молл», 3, Брантовская дорога, Большая Охта, округ Большая Охта, Санкт-Петербург, Северо-Западный федеральный округ, 195027, Россия",59.940507,30.41903
W00284,ТРК Арена,+7-8005007800,Europe,Russian Federation,RU,Voronezh,"Cstore, 23Б, бульвар Победы, Северный, Коминтерновский район, Воронеж, городской округ Воронеж, Воронежская область, Центральный федеральный округ, 394077, Россия",51.710876,39.159681
W00285,ТЦ Европа,+7-8005007800,Europe,Russian Federation,RU,Kursk,"РИВ ГОШ, 6, улица Карла Маркса, СХА, Центральный округ, Курск, Курская область, Центральный федеральный округ, 305000, Россия",51.748956,36.191969
W00286,ТЦ Мурманск Молл,+7-8005007800,Europe,Russian Federation,RU,Murmansk,"О’КЕЙ, 34, проспект Ленина, Гвардейский, Октябрьский округ, Мурманск, городской округ Мурманск, Мурманская область, Северо-Западный федеральный округ, 183038, Россия",68.95694499999999,33.06759599999998
W00287,ТРЦ Рига-Молл,+7-8005007800,Europe,Russian Federation,RU,Krasnogorsk,"Новорижское шоссе, городской округ Красногорск, Московская область, Центральный федеральный округ, 143420, Россия",55.7987841249811,37.2759429523926
W00288,ТЦ СпешиLove,+7-8005007800,Europe,Russian Federation,RU,Perm,"Торгово-развлекательный комплекс «СпешиLove», 114, улица Спешилова, Ленинский район, Пермь, Пермский городской округ, Пермский край, Приволжский федеральный округ, 614013, Россия",58.039157,56.191746
W00289,ТРЦ Ривьера,+7-8005007800,Europe,Russian Federation,RU,Moscow,"Ривьера, 18, Автозаводская улица, Даниловский район, Москва, Центральный федеральный округ, 115280, Россия",55.705461,37.640613
W00290,ТЦ Аэропарк,+7-8005007800,Europe,Russian Federation,RU,Bryansk,"2/1, Рождественская улица, Городище, Бежицкий район, Брянск, городской округ Брянск, Брянская область, Центральный федеральный округ, 241010, Россия",53.27967534,34.316288
W00291,ТЦ ДЕПО,+7-8005007800,Europe,Russian Federation,RU,Nizhniy Tagil,"Свердловское шоссе, Ленинский район, Нижний Тагил, городской округ Нижний Тагил, Свердловская область, Уральский федеральный округ, 622031, Россия",57.8776,60.01831476
W00292,ТРЦ Санрайз Сити,+7-8005007800,Europe,Russian Federation,RU,Naberezhnye Chelny,"Pull & Bear, проспект Сююмбике, Жилой комплекс «Сердце города», Новый город, Центральный район, Набережные Челны, городской округ Набережные Челны, Татарстан, Приволжский федеральный округ, 423823, Россия",55.75155933266337,52.40952598017577
W00293,ТРЦ Космос,+7-8005007800,Europe,Russian Federation,RU,Stavropol,"улица Доваторцев, Юго-Западный, Промышленный район, Ставрополь, городской округ Ставрополь, Ставропольский край, Северо-Кавказский федеральный округ, 355000, Россия",44.996259,41.923747
W00294,ТЦ Капитолий,+7-8005007800,Europe,Russian Federation,RU,Moscow,"Торговый центр ""Капитолий"", 6, проспект Вернадского (дублёр), район Раменки, Москва, Центральный федеральный округ, 119311, Россия",55.69221307788988,37.52906605224609
W00295,SC Yugra,+7-8005007800,Europe,Russian Federation,RU,Nizhnevartovsk,"ТРЦ ""Югра Молл"", 15П, улица Ленина, Западный промышленный узел, городской округ Нижневартовск, Ханты-Мансийский автономный округ — Югра, Уральский федеральный округ, 628600, Россия",60.940343,76.546158
W00296,ТКЦ Ультра,+7-8005007800,Europe,Russian Federation,RU,Ufa,"Askona, Бакалинская улица, Кировский район, Уфа, городской округ Уфа, Башкортостан, Приволжский федеральный округ, 450022, Россия",54.717327,55.984625
W00297,SC Akvarel',+7-8005007800,Europe,Russian Federation,RU,Pushkino,"Пушкино, Пушкинский городской округ, Московская область, Центральный федеральный округ, 141217, Россия",56.0,37.88
W00298,ТЦ Седанка Сити,+7-8005007800,Europe,Russian Federation,RU,Vladivostok,"35, улица Маковского, Советский район, Владивосток, Владивостокский городской округ, Приморский край, Дальневосточный федеральный округ, 690000, Россия",43.21,131.95
W00299,ТЦ Гиперсити,+7-8005007800,Europe,Russian Federation,RU,Kurgan,"12Б, улица Коли Мяготина, Курган, городской округ Курган, Курганская область, Уральский федеральный округ, 640032, Россия",55.42762138662751,65.28355020512697
W00300,SC RIO,+7-8005007800,Europe,Russian Federation,RU,Vologda,"Рио, 12, Окружное шоссе, Вологда, городской округ Вологда, Вологодская область, Северо-Западный федеральный округ, 160028, Россия",59.2025,39.8123
W00301,ТЦ Мега,+7-8005007800,Europe,Russian Federation,RU,St Petersburg,"ТЦ «Мега», с1, проспект Строителей, Южное Кудрово, Кудрово, Заневское городское поселение, Всеволожский район, Ленинградская область, Северо-Западный федеральный округ, 188689, Россия",59.892951,30.514174
W00302,SC Fantastika,+7-8005007800,Europe,Russian Federation,RU,Nizhniy Novgorod,"Фантастика, 187В, улица Родионова, Нижегородский район, Нижний Новгород, городской округ Нижний Новгород, Нижегородская область, Приволжский федеральный округ, 603126, Россия",56.306926,44.074692
W00303,BROSKO MALL,+7-8005007800,Europe,Russian Federation,RU,Khabarovsk,"3А, улица Лермонтова, Волочаевский городок, Центральный район, Хабаровск, городской округ Хабаровск, Хабаровский край, Дальневосточный федеральный округ, 680013, Россия",48.477194,135.095808
W00304,Meydan Istanbul AVM,+90-2166502381,Asia,Turkey,TR,Istanbul,"Fatih Sultan Mehmet Mah., Fatih Sultan Mehmet Mahallesi, Ümraniye, İstanbul, Marmara Bölgesi, 34771, Türkiye",41.024995,29.126853
W00305,Lavina Mall,+38-0443648102,Europe,Ukraine,UA,Kyiv,"Lavina Mall, 6Д, Берковецька вулиця, Берковець, Святошинський район, Київ, 04128, Україна",50.49474,30.35869
W00306,Shopping Centre Sky Mall,+38-0443648106,Europe,Ukraine,UA,Kyiv,"ТРЦ «СкайМолл», 2-Т, проспект Романа Шухевича, Дніпровський район, Київ, 02232, Україна",50.493244,30.557884
W00307,River Mall,+38-0443630186,Europe,Ukraine,UA,Kyiv,"Дніпровська Набережна,23, 23, Дніпровська набережна, 3-й мікрорайон Позняків, Позняки, Дарницький район, Київ, 03081, Україна",50.406583,30.612323
W00308,Retroville,+38-0443630470,Europe,Ukraine,UA,Kyiv,"Retroville, 47, проспект Європейського Союзу, Виноградар, Подільський район, Київ, 04203, Україна",50.504124,30.416524
W00309,Palisades Center,+1-855-466-7467,North America,USA,US,West Nyack,"Palisades Center, 1000, Palisades Center Drive, Central Nyack, West Nyack, Town of Clarkstown, Rockland County, New York, 10994, United States",41.09710631,-73.9544811995438
W00310,Holyoke Mall,+1-855-466-7467,North America,USA,US,Holyoke,"Holyoke Mall, 400, Whitney Avenue, Holyoke Mall, Brightside, Holyoke, Hampden County, Massachusetts, 01013, United States",42.16811117,-72.64115095
W00311,Smith Haven Mall,+1-855-466-7467,North America,USA,US,Lake Grove,"Smith Haven Mall, Burr Lane, Smith Haven Mall, Saint James, Town of Smithtown, Suffolk County, New York, 11755, United States",40.86528485828826,-73.12945998822374
W00312,Broadway Mall,+1-855-466-7467,North America,USA,US,Hicksville,"Broadway Mall, Nevada Street, Hicksville, Town of Oyster Bay, Nassau County, New York, 11801, United States",40.773504,-73.532482
W00313,Dulles Town Center,+1-855-466-7467,North America,USA,US,Dulles,"Popeyes, 21100, Dulles Town Circle, Dulles Town Center, Loudoun County, Virginia, 20166, United States",39.032373,-77.423939
W00314,Sunrise Mall,+1-855-466-7467,North America,USA,US,Massapequa,"2265, Sunrise Mall, East Massapequa, Town of Oyster Bay, Nassau County, New York, 11758, United States",40.68356295,-73.43464494
W00315,White Plains Galleria,+1-855-466-7467,North America,USA,US,White Plains,"Doctor Martin Luther King Junior Boulevard, City of White Plains, Westchester County, New York, 10601, United States",41.0314118,-73.7700827
W00316,Jersey Gardens Mall,+1-855-466-7467,North America,USA,US,Elizabeth,"The Mills at Jersey Gardens, Jersey Gardens Boulevard, The Mills at Jersey Gardens, Elizabeth, Union County, New Jersey, 07206, United States",40.66030410524439,-74.1720486983304
W00317,South Shore Plaza,+1-855-466-7467,North America,USA,US,Braintree,"South Shore Plaza, Bonnieview Road, Braintree, Norfolk County, Massachusetts, 02269, United States",42.22169,-71.024289
W00318,Queens Center Mall,+1-855-466-7467,North America,USA,US,Queens,"Queens Center, 90-15, Queens Boulevard, Elmhurst, Queens, Queens County, City of New York, New York, 11373, United States",40.73467931,-73.8691058754739
W00319,Kings Plaza Mall,+1-855-466-7467,North America,USA,US,Brooklyn,"Kings Plaza Shopping Center, 5100, Avenue U, Brooklyn, Kings County, City of New York, New York, 11234, United States",40.61007037,-73.9212501
W00320,Cherry Hill Mall,+1-855-466-7467,North America,USA,US,Cherry Hill,"Cherry Hill Mall, 2000, Cherry Hill Mall Drive, Cherry Hill Mall, Cherry Hill Township, Camden County, New Jersey, 08002, United States",39.94055625,-75.02484486
W00321,Square One Mall,+1-855-466-7467,North America,USA,US,Saugus,"Square One Mall, 1201, Broadway, Oakland Vale, Saugus, Essex County, Massachusetts, 01906, United States",42.46078263,-71.02817442
W00322,Roosevelt Field Mall,+1-855-466-7467,North America,USA,US,Garden City,"Roosevelt Field Mall, 620, Old Country Road, Roosevelt Field Mall, Village of Garden City, Town of Hempstead, Nassau County, New York, 11530, United States",40.73756024,-73.61223437
W00323,Woodbridge Center,+1-855-466-7467,North America,USA,US,"Woodbridge, NJ","Woodbridge Center, 250, Woodbridge Center Drive, Woodbridge Township, Middlesex County, New Jersey, 07095, United States",40.557212,-74.299407
W00324,125th St,+1-855-466-7467,North America,USA,US,New York City,"H&M, 125, West 125th Street, Manhattan Community Board 10, Manhattan, New York County, City of New York, New York, 10027, United States",40.80865588,-73.94684918
W00325,Chestnut St,+1-855-466-7467,North America,USA,US,Philadelphia,"Perry Building, 1530, Chestnut Street, Rittenhouse Square, Center City, Philadelphia, Philadelphia County, Pennsylvania, 19102, United States",39.95097832,-75.16710706
W00326,Arundel Mills,+1-855-466-7467,North America,USA,US,Hanover,"Arundel Mills Mall, Arundel Mills Circle, Dorsey Ridge, Glen Burnie, Anne Arundel County, Maryland, 21076, United States",39.15855090242901,-76.72536930561533
W00327,F Street,+1-855-466-7467,North America,USA,US,"Washington, DC","H&M, 11th Street Northwest Cycleway, Downtown, Ward 2, Washington, District of Columbia, 20223, United States",38.8975212,-77.0268279
W00328,Potomac Mills,+1-855-466-7467,North America,USA,US,"Woodbridge, VA","Potomac Mills, Potomac Mills Circle, Potomac Mills, Prince William County, Virginia, 22192, United States",38.64322430381494,-77.29783489524226
W00329,Michigan Avenue,+1-855-466-7467,North America,USA,US,Chicago,"840, North Michigan Avenue, Magnificent Mile, Chicago, Cook County, Illinois, 60611, United States",41.89809796,-87.62453175
W00330,Woodfield Shopping Center,+1-855-466-7467,North America,USA,US,Schaumburg,"Woodfield Mall, 5, Perimeter Drive, Schaumburg, Schaumburg Township, Cook County, Illinois, 60173, United States",42.04635519,-88.03618075
W00331,Short Pump Mall,+1-855-466-7467,North America,USA,US,Richmond,"Short Pump Town Center, 11800, West Broad Street, Wellesley, Richmond, Henrico County, Virginia, 23233, United States",37.656514,-77.6208
W00332,Buckland Hills Mall,+1-855-466-7467,North America,USA,US,"Manchester, CT","Buckland Hills Mall, Buckland Hills Drive, Manchester, Capitol Planning Region, 06042, United States",41.8069341783746,-72.54632439888456
W00333,Tanger Outlets Atlantic City,+1-855-466-7467,North America,USA,US,Atlantic City,"121, Michigan Avenue, Tanger Outlets Atlantic City, Atlantic City, Atlantic County, New Jersey, 08401, United States",39.3613223,-74.4370989
W00334,Cambridgeside Galleria,+1-855-466-7467,North America,USA,US,Cambridge,"Cambridgeside, First Street, East Cambridge, Cambridge, Middlesex County, Massachusetts, 02141, United States",42.36835405,-71.07564747
W00335,Orland Square,+1-855-466-7467,North America,USA,US,Orland Park,"Orland Square Mall, 288, Orland Square Drive, Orland Square Mall, Orland Park, Orland Township, Cook County, Illinois, 60462, United States",41.6192502,-87.8472808
W00336,Fox Valley Center,+1-855-466-7467,North America,USA,US,"Aurora, IL","Fox Valley Mall, Fox Valley Center Drive, Fox Valley Mall, Aurora, Naperville Township, DuPage County, Illinois, 60504, United States",41.75812998,-88.21398756
W00337,Glenbrook Square,+1-855-466-7467,North America,USA,US,Fort Wayne,"Glenbrook Square, Fernhill Avenue, Fort Wayne, Allen County, Indiana, 46805, United States",41.11587635,-85.13943541
W00338,Lynnhaven Mall,+1-855-466-7467,North America,USA,US,Virginia Beach,"Reeds Jewelers - Lynnhaven Mall, 701, Space 1048, Lynnhaven Parkway, Virginia Beach, Virginia, 23452, United States",36.81720815,-76.07098516
W00339,Hawthorn Mall,+1-855-466-7467,North America,USA,US,Vernon Hills,"Hawthorn Mall, 122, Hawthorn Center Drive, Hawthorn Mall, Vernon Hills, Lake County, Illinois, 60061, United States",42.24293909,-87.95090005
W00340,West County Center,+1-855-466-7467,North America,USA,US,Des Peres,"West County Center, West County Center Drive, West County Center, Des Peres, Saint Louis County, Missouri, 63131, United States",38.5999606,-90.4478326
W00341,Fair Oaks Mall,+1-855-466-7467,North America,USA,US,Fairfax,"Fair Oaks Mall, Fair Oaks, Fairfax County, Virginia, 22035, United States",38.8631532,-77.35783009
W00342,Tyson Corner Center,+1-855-466-7467,North America,USA,US,McLean,"H&M, Tysons One Place, Tysons Corner Center, Tysons, Fairfax County, Virginia, 22103, United States",38.91801924,-77.21975684
W00343,Brookfield Square,+1-855-466-7467,North America,USA,US,Milwaukee,"Brookfield Square, 95, North Moorland Road, Brookfield, Waukesha County, Wisconsin, 53005, United States",43.033287,-88.110173
W00344,Tuttle Crossing,+1-855-466-7467,North America,USA,US,Dublin,"The Mall at Tuttle Crossing, Blazer Parkway, Camden Place Apartments, Columbus, Franklin County, Ohio, 43016, United States",40.07267976,-83.13030902
W00345,West Towne Mall,+1-855-466-7467,North America,USA,US,Madison,"H&M, 66, West Towne Mall, Madison, Dane County, Wisconsin, 53719, United States",43.05618143424761,-89.50651292010349
W00346,MacArthur Center,+1-855-466-7467,North America,USA,US,Norfolk,"Macarthur Center, 300, Monticello Avenue, Downtown, Norfolk, Virginia, 23510, United States",36.84965767911048,-76.28918530275814
W00347,5th Ave at 18th Street,+1-855-466-7467,North America,USA,US,New York City,"H&M, 111, 5th Avenue, Chelsea, Manhattan, New York County, City of New York, New York, 10035, United States",40.73857149,-73.99152786
W00348,Newbury Street,+1-855-466-7467,North America,USA,US,Boston,"501, Boylston Street, Block B, Back Bay, Boston, Suffolk County, Massachusetts, 02116, United States",42.35136371,-71.07535243
W00349,Westfield San Francisco Centre,+1-855-466-7467,North America,USA,US,San Francisco,"San Francisco Centre, 845, Market Street, Union Square, South of Market, San Francisco, California, 94103, United States",37.78414071,-122.406199
W00350,Ross Park Mall,+1-855-466-7467,North America,USA,US,Pittsburgh,"Ross Park Mall, 1000, Ross Park Mall Drive, Pittsburgh, Allegheny County, Pennsylvania, 15237, United States",40.54438785638582,-80.00668780910809
W00351,Beverly Center,+1-855-466-7467,North America,USA,US,Los Angeles,"Uniqlo, 8500, Beverly Boulevard, Beverly Grove, Los Angeles, Los Angeles County, California, 90048, United States",34.07535044,-118.3775147
W00352,Westfield Annapolis Mall,+1-855-466-7467,North America,USA,US,Annapolis,"Annapolis Mall, 2002, Jennifer Road, Threemile Oak Corner, Bestgate, Anne Arundel County, Maryland, 21041, United States",38.99038333,-76.54688851
W00353,Westfield SouthPark,+1-855-466-7467,North America,USA,US,Strongsville,"SouthPark Mall, 500, Southpark Center, Strongsville, Cuyahoga County, Ohio, 44136, United States",41.30821397,-81.81909727
W00354,Brea Mall,+1-855-466-7467,North America,USA,US,Brea,"Brea Mall, 1065, Brea Mall Way, Brea Mall, Downtown Brea, Brea, Orange County, California, 92821, United States",33.91485935654548,-117.88678582749026
W00355,Willow Grove Park,+1-855-466-7467,North America,USA,US,Willow Grove,"Willow Grove Park Mall, 2500, West Moreland Road, Abington Township, Montgomery County, Pennsylvania, 19090, United States",40.14066551,-75.12465254
W00356,The Mall in Columbia,+1-855-466-7467,North America,USA,US,"Columbia, MD","H&M, 10300, Little Patuxent Parkway, Vantage Point, Columbia Town Center, Columbia, Howard County, Maryland, 21044, United States",39.21483883,-76.85973795
W00357,Towson Town Center,+1-855-466-7467,North America,USA,US,Towson,"Towson Town Center, 825, Dulaney Valley Road, Towson, Baltimore County, Maryland, 21204, United States",39.40387818380609,-76.59822165704611
W00358,Northshore Mall,+1-855-466-7467,North America,USA,US,Peabody,"Northshore Mall, 210, Andover Street, Peabody, Essex County, Massachusetts, 01960, United States",42.54099481,-70.94489515
W00359,Staten Island Mall,+1-855-466-7467,North America,USA,US,Staten Island,"Caviar Mist, Ring Road, Staten Island, Richmond County, City of New York, New York, 10311, United States",40.58166404,-74.16575845
W00360,Fairlane Town Center,+1-855-466-7467,North America,USA,US,Dearborn,"Taco Bell, 18900, Michigan Avenue, Dearborn, Wayne County, Michigan, 48126, United States",42.316895,-83.222937
W00361,Great Lakes Crossing,+1-855-466-7467,North America,USA,US,Auburn Hills,"Great Lakes Crossing Outlets, 4000, Baldwin Road, Lake Angelus, Auburn Hills, Oakland County, Michigan, 48326, United States",42.703038,-83.301247
W00362,Westfarms Mall,+1-855-466-7467,North America,USA,US,"Farmington, CT","Westfarms, 1500, New Britain Avenue, West Hartford, Capitol Planning Region, Connecticut, 06032, United States",41.72362402,-72.76301444
W00363,Townsquare Las Vegas,+1-855-466-7467,North America,USA,US,Las Vegas,"Tommy Bahama's, Town Square West, Enterprise, Clark County, Nevada, 89111, United States",36.0683954,-115.1768156
W00364,Stoneridge Mall,+1-855-466-7467,North America,USA,US,Pleasanton,"5500, Stoneridge Mall Road, Pleasanton, Alameda County, California, 94588, United States",37.6940519,-121.9246186
W00365,Bay Street Emeryville,+1-855-466-7467,North America,USA,US,Emeryville,"Bay Street Parking Garage, South Bayfront Bridge, Bay Street Emeryville, Emeryville, Alameda County, California, 94608, United States",37.83416408,-122.291918
W00366,The Promenade - Bolingbrook,+1-855-466-7467,North America,USA,US,Bolingbrook,"iPic, Brooks Lane, The Promenade, Bolingbrook, Will County, Illinois, 60532, United States",41.71716486,-88.0427702
W00367,Miracle Mile Shops at Planet Hollywood,+1-855-466-7467,North America,USA,US,Las Vegas,"Miracle Mile Shops, 3667, South Las Vegas Boulevard, Las Vegas Strip, Las Vegas, Clark County, Nevada, 89109, United States",36.1109819,-115.1701841
W00368,Great Mall,+1-855-466-7467,North America,USA,US,Milpitas,"Great Mall, 572, Great Mall Drive, Great Mall, Milpitas, Santa Clara County, California, 95035, United States",37.41436906,-121.8978029
W00369,Castleton Square Mall,+1-855-466-7467,North America,USA,US,Indianapolis,"Castleton Square Mall, Castleton Square Drive, Indianapolis, Marion County, Indiana, 46250, United States",39.90786370536663,-86.06490261779686
W00370,Emerald Square Mall,+1-855-466-7467,North America,USA,US,North Attleboro,"Emerald Square, Allen Avenue, North Attleborough, Bristol County, Massachusetts, 02760, United States",41.946377,-71.350119
W00371,Montclair Plaza,+1-855-466-7467,North America,USA,US,Montclair,"Montclair Place, 5060, East Montclair Plaza Lane, Montclair Plaza, Montclair, San Bernardino County, California, 91763, United States",34.08653786,-117.6947629
W00372,University Village,+1-855-466-7467,North America,USA,US,Seattle,"Bloomies, 2604, Northeast University Village Street, University Village, University District, Seattle, King County, Washington, 98105, United States",47.66395139,-122.2997163
W00373,Downtown Santa Monica,+1-855-466-7467,North America,USA,US,Santa Monica,"PacSun, Third Street Promenade, Santa Monica, California, 90401, United States",34.01438548,-118.49511
W00374,Fashion Valley Mall,+1-855-466-7467,North America,USA,US,San Diego,"Cotton On, West Fashion Valley, Fashion Valley Mall, Mission Valley, San Diego, California, 92103, United States",32.7671858,-117.1685683
W00375,The Shoppes at Chino Hills,+1-855-466-7467,North America,USA,US,Chino Hills,"13920, City Center Drive, The Shoppes at Chino Hills, Chino Hills, San Bernardino County, California, 91709, United States",34.000538,-117.730555
W00376,Otay Ranch Town Center,+1-855-466-7467,North America,USA,US,Chula Vista,"H&M, Kestrel Falls Road, Chula Vista, California, 91915, United States",32.6235676,-116.9678946
W00377,North Point Mall,+1-855-466-7467,North America,USA,US,Alpharetta,"James Avery Jewelry, 1000, North Point Circle, Alpharetta, Fulton County, Georgia, 30022, United States",34.04789,-84.294901
W00378,Willowbrook Mall,+1-855-466-7467,North America,USA,US,Wayne,"Piercing Pagoda, 1400, Willowbrook Mall, Wayne, Passaic County, New Jersey, 07470, United States",40.8880753,-74.2587988
W00379,Tacoma Mall,+1-855-466-7467,North America,USA,US,Tacoma,"Dick's Sporting Goods, 4502, South Steele Street, South Tacoma, Tacoma, Pierce County, Washington, 98409, United States",47.215559,-122.469674
W00380,Mall of Georgia,+1-855-466-7467,North America,USA,US,Buford,"3333, Mall of Georgia Boulevard, Mall of Georgia, Buford, Gwinnett County, Georgia, 30519, United States",34.06514599,-83.98398664
W00381,Denver Pavilions,+1-855-466-7467,North America,USA,US,Denver,"H&M, 500, 16th Street Mall, Denver, Colorado, 80202, United States",39.74384895,-104.9909505
W00382,Legacy Place,+1-855-466-7467,North America,USA,US,Dedham,"200;202;204;206;208;210;212;214;218;220;226;228;229;232;234;236;238;240;242;244;246;248;250;260;264;280;287;289;291;298;299, Legacy Place, Dedham, Norfolk County, Massachusetts, 02090, United States",42.23064443,-71.17589235
W00383,Newport Centre,+1-855-466-7467,North America,USA,US,Jersey City,"H&M, Mall Drive West, Newport Centre Mall, Jersey City, Hudson County, New Jersey, 07310, United States",40.72781287,-74.03826753
W00384,Roosevelt Collection,+1-855-466-7467,North America,USA,US,Chicago,"H&M, South Delano Court, Dearborn Park, Loop, Chicago, Cook County, Illinois, 60605, United States",41.868378,-87.632216
W00385,Cross County Shopping Center,+1-855-466-7467,North America,USA,US,Yonkers,"Cross County Center, Gunther Park, City of Yonkers, Westchester County, New York, 10704, United States",40.9279113,-73.8544775
W00386,Victoria Gardens,+1-855-466-7467,North America,USA,US,Rancho Cucamonga,"Victoria Gardens, Biltmore Drive, Central North, Rancho Cucamonga, San Bernardino County, California, 91739, United States",34.11107616,-117.5346968
W00387,Warwick Mall,+1-855-466-7467,North America,USA,US,Warwick,"Warwick Mall Shopping Center, Warwick, Kent County, Rhode Island, 02886, United States",41.72411249,-71.47655189
W00388,The Florida Mall,+1-855-466-7467,North America,USA,US,Orlando,"H&M, Florida Mall Avenue, The Florida Mall, Orlando, Orange County, Florida, 32809, United States",28.44663584,-81.39703184
W00389,Cumberland Mall,+1-855-466-7467,North America,USA,US,Atlanta,"Cumberland Mall, 2860, Cobb Parkway South, Stonewall, Atlanta, Cobb County, Georgia, 30339, United States",33.88080052,-84.46877308
W00390,St. Charles Towne Center,+1-855-466-7467,North America,USA,US,Waldorf,"Saint Charles Towne Center, 11110, Mall Circle, St Charles Towne Center, Westlake Village, Waldorf, Charles County, Maryland, 20603, United States",38.61760064,-76.92491636
W00391,Westfield Oakridge,+1-855-466-7467,North America,USA,US,San Jose,"Cinemark Century Oakridge 20 XD and ScreenX, 925, Blossom Hill Road, Alamitos, San Jose, Santa Clara County, California, 95123, United States",37.25154989,-121.8625201
W00392,Northridge Fashion Center,+1-855-466-7467,North America,USA,US,Northridge,"Old Navy, Shirley Avenue, Northridge West Neighborhood Council District, Los Angeles, Los Angeles County, California, 00103, United States",34.23980086271572,-118.55620136872652
W00393,Westfield North County,+1-855-466-7467,North America,USA,US,Escondido,"Westfield North County, 272, East Via Rancho Parkway, Escondido, California, 92025, United States",33.07137329,-117.0661175
W00394,Vintage Faire Mall,+1-855-466-7467,North America,USA,US,Modesto,"Vintage Faire Mall, 3401, Dale Road, Modesto, Stanislaus County, California, 95356, United States",37.68895848337314,-121.05400795398992
W00395,Westfield Culver City,+1-855-466-7467,North America,USA,US,Culver City,"Popeyes, 6000, Sepulveda Boulevard, Fox Hills, Culver City, California, 90230, United States",33.98587132,-118.3932501
W00396,Citadel Outlets,+1-855-466-7467,North America,USA,US,"Commerce, CA","H&M, Smithway Street, Commerce, California, 90040, United States",34.00837782,-118.1517721
W00397,Crabtree Valley Mall,+1-855-466-7467,North America,USA,US,Raleigh,"Lush, Glenwood Avenue, Crabtree Valley, Raleigh, Wake County, North Carolina, 27612, United States",35.840024,-78.679497
W00398,NorthPark Center,+1-855-466-7467,North America,USA,US,Dallas,"AMC Northpark 15, Northpark Boulevard, Dallas, Dallas County, Texas, 75231, United States",32.86887567,-96.77321125
W00399,Peninsula Town Center,+1-855-466-7467,North America,USA,US,Hampton,"Peninsula Town Center, West Mercury Boulevard, Hampton, Virginia, 23605, United States",37.04372902,-76.39413694
W00400,Scottsdale Fashion Square,+1-855-466-7467,North America,USA,US,Scottsdale,"Scottsdale Fashion Square, 7014, East Camelback Road, 5th Avenue Shops & Boutiques, Scottsdale, Maricopa County, Arizona, 85251, United States",33.503613,-111.927622
W00401,Tucson Mall,+1-855-466-7467,North America,USA,US,Tucson,"Tucson, Pima County, Arizona, United States",32.28805872390552,-110.97369572973533
W00402,The Outlets at Orange,+1-855-466-7467,North America,USA,US,Orange,"GameStop, Designer Drive, Outlets at Orange, Orange, Orange County, California, 92868, United States",33.78349562,-117.8928594
W00403,Christiana Mall,+1-855-466-7467,North America,USA,US,"Newark, DE","Christiana Mall, 132, Mall Road, Cavaliers Country Club Apartments, Newark, New Castle County, Delaware, 19702, United States",39.680003,-75.652508
W00404,Pioneer Place,+1-855-466-7467,North America,USA,US,Portland,"340, Southwest Morrison Street, Pioneer Place, Downtown, Portland, Multnomah County, Oregon, 97204, United States",45.5179255,-122.676526
W00405,Westfield West Covina,+1-855-466-7467,North America,USA,US,West Covina,"Airsoft N Hobby, 112, Plaza Drive, Plaza West Covina, West Covina, California, 91790, United States",34.0707689,-117.9310706
W00406,Westfield MainPlace,+1-855-466-7467,North America,USA,US,Santa Ana,"MainPlace Mall, 2800-2890, North Main Street, Santa Ana, Orange County, California, 92705, United States",33.7757088,-117.8699537
W00407,Freehold Raceway Mall,+1-855-466-7467,North America,USA,US,Freehold,"Freehold Raceway Mall, Winners Circle, Freehold Township, Monmouth County, New Jersey, 07728, United States",40.254048,-74.300756
W00408,Washington Square,+1-855-466-7467,North America,USA,US,Portland,"Athleta, Southwest Washington Square Road, Washington Square, North Tigard, Tigard, Washington County, Oregon, 97223, United States",45.45067995,-122.7814944
W00409,Shops at Mission Viejo,+1-855-466-7467,North America,USA,US,Mission Viejo,"The Shops at Mission Viejo, 555, The Shops Boulevard, The Shops at Mission Viejo, Mission Viejo, Orange County, California, 92691, United States",33.55775761276188,-117.66858232817049
W00410,Park Place,+1-855-466-7467,North America,USA,US,Tucson,"Park Place Mall, 5870, East Broadway Boulevard, Tucson, Pima County, Arizona, 85711, United States",32.2192122027329,-110.865362001544
W00411,Serramonte Center,+1-855-466-7467,North America,USA,US,Daly City,"Serramonte Center, Callan Boulevard, Serramonte, Daly City, San Mateo County, California, 94015, United States",37.67262317,-122.4712572
W00412,Clackamas Town Center,+1-855-466-7467,North America,USA,US,Happy Valley,"12000, Southeast 82nd Avenue, Harmony, Southgate, Clackamas County, Oregon, 97086, United States",45.43621796258534,-122.57394542625684
W00413,State Street- Santa Barbara,+1-855-466-7467,North America,USA,US,Santa Barbara,"H&M, 829, State Street, Waterfront, Santa Barbara, Santa Barbara County, California, 93102, United States",34.42019733,-119.7005135
W00414,The Forum Carlsbad,+1-855-466-7467,North America,USA,US,Carlsbad,"Calle Barcelona, Carlsbad, California, 92024, United States",33.07056637,-117.2660007
W00415,Walden Galleria,+1-855-466-7467,North America,USA,US,Buffalo,"Walden Galleria, 1, Walden Galleria Drive, Buffalo, Erie County, New York, 14225, United States",42.91413657,-78.76188545
W00416,FlatIron Crossing,+1-855-466-7467,North America,USA,US,Broomfield,"Flatiron Crossing, West Flatiron Circle, Flatiron Crossing, Broomfield, Colorado, 80021, United States",39.93332485,-105.1326647
W00417,Galleria Dallas,+1-855-466-7467,North America,USA,US,Dallas,"Galleria Dallas, Galleria Road, Galleria Dallas, Inwood, Dallas, Dallas County, Texas, 75240, United States",32.931355,-96.819422
W00418,Ocean County Mall,+1-855-466-7467,North America,USA,US,"Toms River, NJ","H&M, Bay Avenue, Melody Park, Toms River, Ocean County, New Jersey, 08753, United States",39.97960359379568,-74.17837241799168
W00419,Palladio at Broadstone,+1-855-466-7467,North America,USA,US,Folsom,"H&M, 410, Palladio Parkway, Folsom, Sacramento County, California, 95630, United States",38.64960215,-121.1209175
W00420,Southridge Mall,+1-855-466-7467,North America,USA,US,Milwaukee,"Southridge Mall, 5300, South 76th Street, Whitnall Oaks, Greendale, Milwaukee County, Wisconsin, 53129, United States",42.9475708,-88.0047408
W00421,The Avenues,+1-855-466-7467,North America,USA,US,Jacksonville,"Master Shoe Repair, Philips Highway, Jacksonville, Duval County, Florida, 32255, United States",30.18408591,-81.554146
W00422,Lincoln Road,+1-855-466-7467,North America,USA,US,Miami Beach,"Lincoln Road Mall, Lincoln Road, Miami Beach, Miami-Dade County, Florida, 33139, United States",25.79084483,-80.13409764
W00423,Cherry Creek Shopping Center,+1-855-466-7467,North America,USA,US,Denver,"Cherry Creek Shopping Center, 3000, East 1st Avenue, Denver, Colorado, 80206, United States",39.71636025988148,-104.95271150762812
W00424,International Plaza,+1-855-466-7467,North America,USA,US,Tampa,"International Plaza and Bay Street, 2223, International Plaza, West Shore Estates, Tampa, Hillsborough County, Florida, 33607, United States",27.96443,-82.521502
W00425,Shops at Willow Bend,+1-855-466-7467,North America,USA,US,Plano,"Willow Bend Shopping Center, 6121, West Park Boulevard, Plano, Collin County, Texas, 75093, United States",33.030374,-96.833279
W00426,Westfield Wheaton,+1-855-466-7467,North America,USA,US,Wheaton,"Westfield Wheaton, 11160, Veirs Mill Road, Wheaton Forest, Silver Spring, Montgomery County, Maryland, 20902, United States",39.036605,-77.055683
W00427,Roseville Center,+1-855-466-7467,North America,USA,US,"Roseville, MN","Rosedale Center, Rosedale Shopping Center, Rosedale Center, Roseville, Ramsey County, Minnesota, 55113, United States",45.013285,-93.172603
W00428,Hillsdale Shopping Center,+1-855-466-7467,North America,USA,US,San Mateo,"H&M, West Hillsdale Boulevard, Hillsdale Shopping Center, Hillsdale, San Mateo, San Mateo County, California, 94403, United States",37.53597112834149,-122.29946412675122
W00429,Arizona Mills,+1-855-466-7467,North America,USA,US,Tempe,"H&M, South Arizona Mills Circle, Tempe, Maricopa County, Arizona, 85252, United States",33.3839438,-111.9651608
W00430,Promenade at Temecula,+1-855-466-7467,North America,USA,US,Temecula,"Park Lane, Promenade Temecula, Winchester Highlands, Temecula, Riverside County, California, 92390, United States",33.52514989,-117.1532942
W00431,Country Club Plaza,+1-855-466-7467,North America,USA,US,Kansas City,"H&M, West 47th Street, Plaza-Westport, Country Club Plaza, Kansas City, Jackson County, Missouri, 64112, United States",39.04260288,-94.59269531
W00432,Town East Mall,+1-855-466-7467,North America,USA,US,Mesquite,"Town East Mall, 2063, Town East Mall, Mesquite, Dallas County, Texas, 75150, United States",32.80742248,-96.62436457
W00433,Hamilton Mall,+1-855-466-7467,North America,USA,US,Mays Landing,"H&M, 4403, Black Horse Pike, Hamilton Mall, McKee City, Hamilton Township, Atlantic County, New Jersey, 08330, United States",39.45404532,-74.64334874
W00434,Polaris Fashion Place,+1-855-466-7467,North America,USA,US,"Columbus, OH","Polaris Fashion Place, Fashion Place Loop, Polaris Fashion Place, Columbus, Delaware County, Ohio, 43240, United States",40.1457801,-82.9798493
W00435,Baybrook Mall,+1-855-466-7467,North America,USA,US,Friendswood,"Baybrook Mall, 500, Baybrook Mall, Houston, Harris County, Texas, 77546, United States",29.5412339,-95.14869332
W00436,King of Prussia - Plaza,+1-855-466-7467,North America,USA,US,King of Prussia,"King of Prussia Mall, Court Boulevard, King of Prussia Mall, Cannon Run, King of Prussia, Upper Merion Township, Montgomery County, Pennsylvania, 19406, United States",40.089097,-75.391605
W00437,Quaker Bridge Mall,+1-855-466-7467,North America,USA,US,"Lawrenceville, GA","3320, Brunswick Pike, Clarksville, Lawrence Township, Mercer County, New Jersey, 08607, United States",40.29025740687229,-74.682030915582
W00438,Galleria at Sunset,+1-855-466-7467,North America,USA,US,Henderson,"Galleria at Sunset, 1300, West Sunset Road, Whitney Ranch, Henderson, Clark County, Nevada, 89014, United States",36.06711797,-115.0428227
W00439,WestShore Plaza,+1-855-466-7467,North America,USA,US,Tampa,"Westshore Plaza Mall, 250, Memorial Highway, Hesperides, Tampa, Hillsborough County, Florida, 33609, United States",27.946454,-82.528449
W00440,Tanger Outlets - Riverhead,+1-855-466-7467,North America,USA,US,Riverhead,"Long Island Expressway, Calverton, Town of Riverhead, Suffolk County, New York, 11933, United States",40.921448,-72.7197178
W00441,Jamaica Center,+1-855-466-7467,North America,USA,US,New York,"103-18, 169th Street, Hillside, Queens, Queens County, City of New York, New York, 11433, United States",40.702677,-73.78896889999999
W00442,Bridge Street Town Centre,+1-855-466-7467,North America,USA,US,Huntsville,"H&M, Governors West, Bridge  Street Town Center, Steeplechase Townhomes, Huntsville, Madison County, Alabama, 35893, United States",34.717462,-86.673184
W00443,Chandler Fashion Center,+1-855-466-7467,North America,USA,US,Chandler,"H&M, 3111, West Chandler Boulevard, Pepperwood, Chandler, Maricopa County, Arizona, 85224, United States",33.30151329051142,-111.89796019235791
W00444,Arbor Place,+1-855-466-7467,North America,USA,US,Douglasville,"H&M, Douglas Boulevard, Arbor Place, Douglasville, Douglas County, Georgia, 30135, United States",33.72801815,-84.74655436
W00445,Silver Spring,+1-855-466-7467,North America,USA,US,Silver Spring,"H&M, 8518, Fenton Street, Queen Annes, Silver Spring, Montgomery County, Maryland, 20910, United States",38.99643718,-77.02537216
W00446,The Domain,+1-855-466-7467,North America,USA,US,Austin,"H&M, 11401, Century Oaks Terrace, The Domain, Austin, Travis County, Texas, 78758, United States",30.40060093,-97.72628546
W00447,Alderwood Mall,+1-855-466-7467,North America,USA,US,Lynnwood,"H&M, 3000, 184th Street Southwest, Lynnwood, Snohomish County, Washington, 98037, United States",47.82989696955438,-122.2730818589996
W00448,Cherryvale Mall,+1-855-466-7467,North America,USA,US,Rockford,"Cherryvale Mall, 7200, North Cherryvale Mall Drive, Cherryvale Mall, Cherry Valley, Rockford Township, Winnebago County, Illinois, 61112, United States",42.246052,-88.976488
W00449,White Oaks Mall,+1-855-466-7467,North America,USA,US,"Springfield, MO","White Oaks Mall, 2501, Wabash Avenue, Springfield, Sangamon County, Illinois, 62704, United States",39.7667479,-89.70344692
W00450,Augusta Mall,+1-855-466-7467,North America,USA,US,Augusta,"H&M, Garden Spring Lane, Augusta Mall, Ridgewood, Augusta, Richmond County, Georgia, 30909, United States",33.46443811,-82.07973652
W00451,Spokane Valley Mall,+1-855-466-7467,North America,USA,US,Spokane,"Spokane Valley Mall, 14700, East Indiana Avenue, Spokane Valley, Spokane County, Washington, 99016, United States",47.67392935,-117.2082414
W00452,Coastland Center,+1-855-466-7467,North America,USA,US,Naples,"H&M, Fleischmann Boulevard, Naples, Collier County, Florida, 34102, United States",26.169558,-81.797369
W00453,King Street,+1-855-466-7467,North America,USA,US,Alexandria,"614, King Street, Captains Row, Lyles-Crouch, Alexandria, Virginia, 22314, United States",38.80476264,-77.04651278
W00454,Station Park,+1-855-466-7467,North America,USA,US,"Farmington, CT","H&M, 320, Station Parkway, Station Park, Farmington, Davis County, Utah, 84025, United States",40.98404675,-111.9061748
W00455,Tanger Outlets - Westgate,+1-855-466-7467,North America,USA,US,"Glendale, AZ","H&M, 6800, North 95th Avenue, Glendale, Maricopa County, Arizona, 85305, United States",33.53577401,-112.2674571
W00456,281 King Street,+1-855-466-7467,North America,USA,US,"Charleston, WV","H&M, 281, King Street, King Street Fashion District, Charleston, Charleston County, South Carolina, 29401, United States",32.7825551283594,-79.9346552349487
W00457,Puente Hills Mall,+1-855-466-7467,North America,USA,US,City of Industry,"AMC Puente Hills 20, Pomona Freeway, Rowland, City of Industry, California, 91748, United States",33.99414903725312,-117.92675789686098
W00458,Woodland Mall,+1-855-466-7467,North America,USA,US,"Grand Rapids, MI","Woodland Mall, Woodland Drive Southeast, Woodland Mall, Kentwood, Kent County, Michigan, 49512, United States",42.91667083,-85.5867912
W00459,Boise Town Square,+1-855-466-7467,North America,USA,US,Boise,"H&M, Boise Connector, Boise, Ada County, Idaho, 83704, United States",43.60746597,-116.2785338
W00460,Calhoun Square,+1-855-466-7467,North America,USA,US,Minneapolis,"H&M, 3001, Hennepin Avenue South, South Uptown, Bde Maka Ska - Isles, Minneapolis, Hennepin County, Minnesota, 55408, United States",44.94772302,-93.2980603
W00461,The Shops at 69th Street,+1-855-466-7467,North America,USA,US,Upper Darby,"H&M, 2, South 69th Street, Stonehurst, Upper Darby, Delaware County, Pennsylvania, 19082, United States",39.961371,-75.259269
W00462,The Mall at Millenia,+1-855-466-7467,North America,USA,US,Orlando,"The Mall at Millenia, 4200, Conroy Road, Orlando, Orange County, Florida, 32839, United States",28.486088,-81.431385
W00463,Oak Park Mall,+1-855-466-7467,North America,USA,US,Overland Park,"Oak Park Mall, West 97th Street, Overland Park, Johnson County, Kansas, 66215, United States",38.9534056,-94.7181354
W00464,Destin Commons,+1-855-466-7467,North America,USA,US,Destin,"H&M, Cross Street, Destin Commons, Okaloosa County, Florida, 32541, United States",30.39063,-86.424401
W00465,Outlets at the Border,+1-855-466-7467,North America,USA,US,San Ysidro,"Outlets At The Border, 4463, Camino de la Plaza, Park Haven, San Ysidro, San Diego, California, 92173, United States",32.54276856,-117.0379009
W00466,The Streets of Tanasbourne,+1-855-466-7467,North America,USA,US,Hillsboro,"H&M, 2210, Northeast Allie Avenue, The Streets of Tanasbourne, Tanasbourne, Hillsboro, Washington County, Oregon, 97124, United States",45.5367026,-122.8781503
W00467,The Streets at SouthGlenn,+1-855-466-7467,North America,USA,US,Centennial,"6851, South Gaylord Street, Streets of Southglenn, Centennial, Arapahoe County, Colorado, 80121, United States",39.591669,-104.962622
W00468,Carolina Place,+1-855-466-7467,North America,USA,US,Pineville,"Pandora, 11025, Carolina Place Parkway, Downtown, Pineville, Mecklenburg County, North Carolina, 28134, United States",35.082281,-80.876449
W00469,Perimeter Mall,+1-855-466-7467,North America,USA,US,Atlanta,"H&M, 4400, Ashford Dunwoody Road Northeast, Atlanta, DeKalb County, Georgia, 30346, United States",33.9237921,-84.34021845
W00470,Outlet Collection Seattle,+1-855-466-7467,North America,USA,US,Auburn,"Fieldhouse USA, 1101, Outlet Collection Way, Downtown, Auburn, King County, Washington, 98001, United States",47.30025305,-122.2455168
W00471,Boulevard Mall,+1-855-466-7467,North America,USA,US,Amherst,"Boulevard Mall, 730, Alberta Drive, Eggertsville, Town of Amherst, Erie County, New York, 14226, United States",42.98774734,-78.81940936
W00472,Oxmoor Center,+1-855-466-7467,North America,USA,US,Louisville,"7900, Shelbyville Road, Louisville, Jefferson County, Kentucky, 40222, United States",38.24728991,-85.60965971
W00473,Ridgedale Center,+1-855-466-7467,North America,USA,US,Minnetonka,"Ridgedale Center, Oak Knoll, Minnetonka, Hennepin County, Minnesota, 55305, United States",44.967885,-93.43662
W00474,Rosemary Square,+1-855-466-7467,North America,USA,US,West Palm Beach,"H&M, 700, South Rosemary Avenue, CityPlace, West Palm Beach, Palm Beach County, Florida, 33401, United States",26.707889,-80.057319
W00475,The Collection at Riverpark,+1-855-466-7467,North America,USA,US,Oxnard,"Town Center Drive, The Collection at RiverPark, Oxnard, Ventura County, California, 93036, United States",34.23881966,-119.1772674
W00476,French Quarter,+1-855-466-7467,North America,USA,US,New Orleans,"The Marketplace at Jackson Brewery, North Peters Street, French Market, French Quarter, New Orleans, Orleans Parish, Louisiana, 70130, United States",29.95479395,-90.06406657
W00477,Tanger Outlets at National Harbor,+1-855-466-7467,North America,USA,US,Oxon Hill,"Oxon Hill Road, Oxon Hill, Prince George's County, Maryland, 20744, United States",38.797644134,-77.00214386
W00478,Pembroke Lakes Mall,+1-855-466-7467,North America,USA,US,Pembroke Pines,"Pembroke Lakes Mall, 11401, Pines Boulevard, Pembroke Pines, Broward County, Florida, 33026, United States",26.01030395,-80.30531532
W00479,Meadowood Mall,+1-855-466-7467,North America,USA,US,Reno,"Meadowood Mall, Meadowood Mall Transit Access, Reno, Washoe County, Nevada, 89502, United States",39.47312313,-119.7831978
W00480,Mall at Wellington Green,+1-855-466-7467,North America,USA,US,Wellington,"The Mall at Wellington Green, 10300, Ring Road, The Mall at Wellington Green, Wellington, Palm Beach County, Florida, 33414, United States",26.64657187,-80.20870691
W00481,Colorado Mills,+1-855-466-7467,North America,USA,US,"Lakewood, CO","Colorado Mills, 14500, West Colfax Avenue, Lakewood, Jefferson County, Colorado, 80401, United States",39.73119777672596,-105.15764586927526
W00482,Northlake Mall,+1-855-466-7467,North America,USA,US,Charlotte,"H&M, 6801, Northlake Mall Drive, Northlake, Charlotte, Mecklenburg County, North Carolina, 28216, United States",35.35171624,-80.85106847
W00483,Opry Mills,+1-855-466-7467,North America,USA,US,Nashville,"Opry Mills, 433, Opry Mills Drive, Nashville-Davidson, Davidson County, Middle Tennessee, Tennessee, 37214, United States",36.20465149,-86.69185233
W00484,Four Seasons Town Centre,+1-855-466-7467,North America,USA,US,Greensboro,"Four Seasons Town Centre, 410, Four Seasons Boulevard, Four Seasons Town Center, Greensboro, Guilford County, North Carolina, 27406, United States",36.03930495,-79.83763978
W00485,Waikiki Business Plaza,+1-855-466-7467,North America,USA,US,Honolulu,"H&M, Seaside Avenue, Kalakaua Shopping District, Waikīkī, Honolulu, Honolulu County, Hawaii, 96815, United States",21.27879425495212,-157.82823332630915
W00486,Oxford Valley Mall,+1-855-466-7467,North America,USA,US,Langhorn,"Oxford Valley Mall, Middletown Boulevard, Langhorne Gardens, Middletown Township, Bucks County, Pennsylvania, 19047, United States",40.18448054650654,-74.88105130216482
W00487,Solano Town Center,+1-855-466-7467,North America,USA,US,Fairfield,"Solano Town Center, 1350, Travis Boulevard, Fairfield, Solano County, California, 94533, United States",38.260363,-122.052932
W00488,Galleria at Crystal Run,+1-855-466-7467,North America,USA,US,Middletown,"Galleria @ Crystal Run, 1, North Galleria Drive, City of Middletown, Town of Wallkill, Orange County, New York, 10941, United States",41.453324,-74.369367
W00489,Valley View Mall,+1-855-466-7467,North America,USA,US,Roanoke,"Valley View Boulevard Northwest, Dorchester Court, Roanoke, Virginia, 24012, United States",37.303841,-79.959229
W00490,Coronado Mall,+1-855-466-7467,North America,USA,US,Albuquerque,"Coronado Mall Security, Up, Coronado Center, Uptown, Albuquerque, Bernalillo County, New Mexico, 87110, United States",35.10684939,-106.5726689
W00491,Outlets at Castle Rock,+1-855-466-7467,North America,USA,US,Castle Rock,"Outlets at Castle Rock, 5050, Factory Shops Boulevard, Castle Rock, Douglas County, Colorado, 80108, United States",39.4163202561035,-104.87350146922626
W00492,Katy Mills,+1-855-466-7467,North America,USA,US,"Houston, TX","Katy Mills, Katy Mills Circle, Katy, Fort Bend County, Texas, 77494, United States",29.77717724,-95.8096309
W00493,Tanger Outlet Center Pittsburgh,+1-855-466-7467,North America,USA,US,"Washington, PA","Tanger Outlets Pittsburgh, Tanger Boulevard, South Strabane Township, Washington County, Pennsylvania, 15347, United States",40.21549507,-80.21197673
W00494,Outlets at Traverse Mountain,+1-855-466-7467,North America,USA,US,Lehi,"H&M, West Cresthaven Lane, Crest Haven Village, Lehi, Utah County, Utah, 84043, United States",40.43613425784977,-111.88512812622632
W00495,Miami International Mall,+1-855-466-7467,North America,USA,US,Miami,"Miami International Mall, 1455, Northwest 107th Avenue, Doral, Miami-Dade County, Florida, 33172, United States",25.78766177,-80.36453158
W00496,College Mall,+1-855-466-7467,North America,USA,US,"Bloomington, IL","College Mall, East Buick Cadillac Boulevard, Bloomington, Monroe County, Indiana, 47401, United States",39.16123548,-86.49555914
W00497,The Galleria,+1-855-466-7467,North America,USA,US,"Houston, TX","The Galleria, 5085, Westheimer Road, Uptown, Lamar Terrace, Houston, Harris County, Texas, 77056, United States",29.73760468,-95.4644604
W00498,Tanger Outlet Charleston,+1-855-466-7467,North America,USA,US,North Charleston,"H&M, Centre Pointe Drive, North Charleston, Charleston County, South Carolina, 29403, United States",32.87489336675477,-80.01864613610871
W00499,Antelope Valley Center,+1-855-466-7467,North America,USA,US,Palmdale,"H&M, Mall Ring Road, Antelope Valley Mall, Palmdale, Los Angeles County, California, United States",34.60450831,-118.1529647
W00500,Cielo Vista,+1-855-466-7467,North America,USA,US,El Paso,"8401, Gateway Boulevard West, El Paso, El Paso County, Texas, 79925, United States",31.77449896,-106.3785986
W00501,Asheville Mall,+1-855-466-7467,North America,USA,US,Asheville,"Asheville Mall, White Pine Court, Asheville, Buncombe County, North Carolina, 28805, United States",35.57956785157341,-82.52575729654683
W00502,Yorktown Center,+1-855-466-7467,North America,USA,US,Lombard,"Last Chance, 100, Yorktown Mall Drive, Lombard, DuPage County, Illinois, 60148, United States",41.83870392,-88.00864554
W00503,Meridian Mall,+1-855-466-7467,North America,USA,US,Okemos,"Meridian Mall, 1982, West Grand River Avenue, Okemos, Ingham County, Michigan, 48864, United States",42.72514987153399,-84.41984923847792
W00504,The Shoppes at River Park,+1-855-466-7467,North America,USA,US,Fresno,"H&M, Paseo Del Centro, River Park Shopping Center, Fresno, Fresno County, California, 93720, United States",36.84880724,-119.7887447
W00505,Palm Desert,+1-855-466-7467,North America,USA,US,Palm Desert,"The Shops at Palm Desert, 72840, Highway 111, Palm Desert, Riverside County, California, 92260, United States",33.723543,-116.395678
W00506,The Shops at La Cantera,+1-855-466-7467,North America,USA,US,"San Antonio, TX","H&M, 15900, La Cantera Parkway, San Antonio, Bexar County, Texas, 78256, United States",29.59221638,-98.61198183
W00507,Tejon Ranch Outlets,+1-855-466-7467,North America,USA,US,Lebec,"1002, Crane Canyon Road, Lebec, Kern County, California, 93243, United States",34.834885521,-118.862232095
W00508,Concord Mills,+1-855-466-7467,North America,USA,US,"Concord, NC","Concord Mills, 8111, Concord Mills Boulevard, Concord Mills, Concord, Cabarrus County, North Carolina, 28027, United States",35.37010775,-80.723933
W00509,Apache Mall,+1-855-466-7467,North America,USA,US,"Rochester, MN","H&M, Apache Mall, Rochester, Olmsted County, Minnesota, 55902, United States",44.00488906600118,-92.47947898724584
W00510,Weberstown Mall,+1-855-466-7467,North America,USA,US,Stockton,"Weberstown Mall, West March Lane, Stockton, San Joaquin County, California, 95204, United States",37.99510509,-121.3115597
W00511,Governor's Square Mall,+1-855-466-7467,North America,USA,US,Tallahasse,"Governor's Square Mall, 1500, Apalachee Parkway, Tallahassee, Leon County, Florida, 32301, United States",30.43654035,-84.2530936
W00512,The Outlet Shoppes at El Paso,+1-855-466-7467,North America,USA,US,El Paso,"La Mesa Street, El Paso, El Paso County, Texas, 79835, United States",31.91427870661876,-106.58559153488346
W00513,The Mall at Bay Plaza,+1-855-466-7467,North America,USA,US,Bronx,"Mall at Bay Plaza, 200, Baychester Avenue, Bronx County, The Bronx, City of New York, New York, 10475, United States",40.8644068,-73.82734909
W00514,Oakwood Center,+1-855-466-7467,North America,USA,US,New Orleans,"Oakwood Center, Terry Parkway, Terrytown, Jefferson Parish, Louisiana, 70056, United States",29.92166653,-90.03855616
W00515,Grand Plaza Outlets,+1-855-466-7467,North America,USA,US,Calexico,"West 2nd Street, Calexico, Imperial County, California, 92231, United States",32.66500494,-115.5072469
W00516,Northpark Mall,+1-855-466-7467,North America,USA,US,Jackson,"REEDS Jewelers - Northpark Mall, 1200, East County Line Road, Greenbrook, Ridgeland, Madison County, Mississippi, 39157, United States",32.40261,-90.129027
W00517,Valencia Town Center,+1-855-466-7467,North America,USA,US,Valencia,"24201, Town Center Drive, Valencia Town Center, Valencia, Santa Clarita, Los Angeles County, California, 91355, United States",34.41557917,-118.5565857
W00518,The Oaks,+1-855-466-7467,North America,USA,US,Gainesville,"The Oaks Mall, 6419, West Newberry Road, Durant Estates, Gainesville, Alachua County, Florida, 32605, United States",29.657574364,-82.412416178
W00519,1133 Connecticut Avenue,+1-855-466-7467,North America,USA,US,"Washington, DC","H&M, 1133, Connecticut Avenue Northwest, Golden Triangle, Ward 2, Washington, District of Columbia, 20036, United States",38.90491351128647,-77.04036834603272
W00520,Dayton Mall,+1-855-466-7467,North America,USA,US,Dayton,"Dayton Mall, 2700, Mall Ring Road, Miami Township, Montgomery County, Ohio, 45342, United States",39.63413401,-84.22217578
W00521,Tanger Outlets Commerce Georgia,+1-855-466-7467,North America,USA,US,"Commerce, CA","Steven B Tanger Boulevard, Tanger Outlets, Commerce, Jackson County, Georgia, 30599, United States",34.25178826,-83.47361068
W00522,Cross Creek Mall,+1-855-466-7467,North America,USA,US,"Fayetteville, AR","Gordon's Jewelers, 419, Morganton Road, The Oaks, Fayetteville, Cumberland County, North Carolina, 28303, United States",35.07216373,-78.96050821
W00523,Melbourne Square Mall,+1-855-466-7467,North America,USA,US,Melbourne,"Melbourne Square Mall, 1700, Gateway Drive, Melbourne, Brevard County, Florida, 32904, United States",28.08151880854502,-80.65059546519325
W00524,Fig at 7th,+1-855-466-7467,North America,USA,US,Los Angeles,"Nordstrom Rack, West 7th Street, Financial District, Downtown, Los Angeles, Los Angeles County, California, 90017, United States",34.04931654801712,-118.26115954475524
W00525,Boynton Beach Mall,+1-855-466-7467,North America,USA,US,Boynton Beach,"Old Boynton Road, Boynton Beach, Palm Beach County, Florida, 33436, United States",26.53519781,-80.09616894
W00526,Parkway Plaza,+1-855-466-7467,North America,USA,US,El Cajon,"Parkway Plaza, Arnele Avenue, El Cajon, California, 92020, United States",32.80610093,-116.9663885
W00527,Northridge Mall,+1-855-466-7467,North America,USA,US,Salinas,"Hometown Buffet, Boronda Road, Santa Rita, Salinas, Monterey County, California, 93906, United States",36.72084389,-121.6573133
W00528,Fayette Mall,+1-855-466-7467,North America,USA,US,Lexington,"Fayette Mall, Nicholasville Road, Blueberry Hill, Lexington, Fayette County, Kentucky, 40503, United States",37.9882506,-84.52863961
W00529,University Town Center,+1-855-466-7467,North America,USA,US,Sarasota,"Mall at University Town Center, 140, University Town Center Drive, Sarasota County, Florida, 34243, United States",27.38461553,-82.453104
W00530,Louis Joliet Mall,+1-855-466-7467,North America,USA,US,Joliet,"Louis Joliet Mall, 3340, Mall Loop Drive, Louis Joliet Mall, Joliet, Plainfield Township, Will County, Illinois, 60431, United States",41.576846,-88.165224
W00531,4 Times Square,+1-855-466-7467,North America,USA,US,New York City,"4 Times Square, 4, Times Square, Manhattan, New York County, City of New York, New York, 10036, United States",40.75597524,-73.98609169
W00532,Shops at Rivercenter,+1-855-466-7467,North America,USA,US,"San Antonio, TX","Shops at Rivercenter Mall, East Commerce Street, Hemisfair, San Antonio, Bexar County, Texas, 78205, United States",29.42420282,-98.48678756
W00533,Cool Springs Galleria,+1-855-466-7467,North America,USA,US,Franklin,"Coolsprings Galleria, Galleria Boulevard, Franklin, Williamson County, Middle Tennessee, Tennessee, 37067, United States",35.95561767653513,-86.8144878861716
W00534,Ka Makana Ali'i,+1-855-466-7467,North America,USA,US,Kapolei,"Ka Makana Ali`i, 91-5431, Kapolei Parkway, ‘Ewa Villages, East Kapolei, Kapolei, Honolulu County, Hawaii, 96707, United States",21.3328756,-158.0519426
W00535,Southwest Plaza Mall,+1-855-466-7467,North America,USA,US,Littleton,"H&M, West Bowles Avenue, Jefferson County, Colorado, 80127, United States",39.6118066,-105.0960216
W00536,Foothills Mall,+1-855-466-7467,North America,USA,US,Fort Collins,"Foothills Shopping Mall, 235, East Foothills Parkway, Foothills Shopping Mall, Fort Collins, Larimer County, Colorado, 80525, United States",40.54311518064843,-105.07376958564272
W00537,Natick Mall,+1-855-466-7467,North America,USA,US,Natick,"Natick Mall, Nouvelle Way, Natick Mall, Natick, Middlesex County, Massachusetts, 01760, United States",42.30100103,-71.3855245
W00538,Southlands,+1-855-466-7467,North America,USA,US,"Aurora, IL","H&M, 6205, South Main Street, Southlands Shopping Center, Aurora, Arapahoe County, Colorado, 80016, United States",39.60401633,-104.709189233135
W00539,Westfield Fashion Square,+1-855-466-7467,North America,USA,US,Sherman Oaks,"Westfield Fashion Square Mall, Murietta Avenue, Sherman Oaks, Los Angeles, Los Angeles County, California, 91423, United States",34.15683071,-118.4385898
W00540,Citrus Park,+1-855-466-7467,North America,USA,US,Tampa,"Starbucks, 7968, Citrus Park Town Center Boulevard, Spivey, Citrus Park Crossing, Tampa, Hillsborough County, Florida, 33625, United States",28.06897206,-82.57687775
W00541,Chicago Ridge Mall,+1-855-466-7467,North America,USA,US,"Chicago Ridge, IL","Pandora, 500, Chicago Ridge Mall, Chicago Ridge, Worth Township, Cook County, Illinois, 60415, United States",41.71540099,-87.78239795
W00542,Pike Outlets,+1-855-466-7467,North America,USA,US,Long Beach,"H&M, Bay Street, The Pike Outlets, Long Beach, California, 90834, United States",33.76488456,-118.1942345
W00543,Volusia Mall,+1-855-466-7467,North America,USA,US,Daytona Beach,"Volusia Mall, 1700, International Speedway Boulevard, Daytona Beach, Volusia County, Florida, 32114, United States",29.19730913,-81.06203735
W00544,Gateway Mall,+1-855-466-7467,North America,USA,US,Lincoln,"Gateway Mall, 6100, O Street, Riley, Lincoln, Lancaster County, Nebraska, 68505, United States",40.81604598,-96.63657837
W00545,St. Augustine Outlets,+1-855-466-7467,North America,USA,US,St Augustine,"Papaya, Outlet Centre Drive, Saint Augustine, Saint Johns County, Florida, 32084, United States",29.92607715,-81.412175
W00546,Pacific City,+1-855-466-7467,North America,USA,US,Huntington Beach,"Ola Mexican Kitchen, 21040, Pacific Coast Highway, Huntington Beach, Orange County, California, 92648, United States",33.65448702,-117.9971699
W00547,Hillside Village,+1-855-466-7467,North America,USA,US,Cedar Hill,"H&M, West Pleasant Run Road, Cedar Hill, Dallas County, Texas, 75104, United States",32.6032393,-96.9421733
W00548,Deptford Mall,+1-855-466-7467,North America,USA,US,Deptford,"Deptford Mall, Mall West Drive, Deptford Mall, Deptford Township, Gloucester County, New Jersey, 08096, United States",39.83172857,-75.09709418
W00549,Macomb Mall,+1-855-466-7467,North America,USA,US,"Roseville, MN","Macomb Mall, Beaconsfield Street, Roseville, Macomb County, Michigan, 48035, United States",42.53504408,-82.91734815
W00550,Quail Springs Mall,+1-855-466-7467,North America,USA,US,Oklahoma City,"H&M, Northwest 140th Street, Quail Springs Mall, Oklahoma City, Oklahoma County, Oklahoma, 73134, United States",35.6133704,-97.55844086
W00551,Tanger Outlets Grand Rapids,+1-855-466-7467,North America,USA,US,"Grand Rapids, MI","Tanger Outlet Mall, Byron Township, Kent County, Michigan, 49315, United States",42.8079987,-85.6722096
W00552,Riverchase Galleria,+1-855-466-7467,North America,USA,US,Hoover,"Galleria Circle, Riverchase Galleria, Hoover, Jefferson County, Alabama, 35244, United States",33.37824333,-86.80833145
W00553,Golden Triangle Mall,+1-855-466-7467,North America,USA,US,Denton,"South Interstate 35E, Denton, Denton County, Texas, 76205, United States",33.1898956,-97.1084992
W00554,Laurel Park Place,+1-855-466-7467,North America,USA,US,Detroit,"Laurel Park Place, 37700, 6 Mile Road, Livonia, Wayne County, Michigan, 48152, United States",42.41347568,-83.41575846
W00555,Monterey Street,+1-855-466-7467,North America,USA,US,San Luis Obispo,"886, Monterey Street, Downtown, San Luis Obispo, San Luis Obispo County, California, 93410, United States",35.2812166,-120.6628021
W00556,NewPark Mall,+1-855-466-7467,North America,USA,US,Newark,"Newpark Mall, 2086, Newpark Mall, Mowry Landing, Newark, Alameda County, California, 94560, United States",37.52630026,-122.0015833
W00557,Outlet Shoppes of the Bluegrass,+1-855-466-7467,North America,USA,US,Louisville,"I 64, Veechdale, Shelby County, Kentucky, 40067, United States",38.20721307,-85.35238087
W00558,Jefferson Mall,+1-855-466-7467,North America,USA,US,Louisville,"Jefferson Mall, 4801, Outer Loop, Louisville, Jefferson County, Kentucky, 40219, United States",38.14012586,-85.66986055
W00559,Chesterfield Towne Center,+1-855-466-7467,North America,USA,US,Richmond,"Shoe Dept. Encore, 1150, Midlothian Turnpike, Bon Air, Chesterfield County, Virginia, 23235, United States",37.50735948306893,-77.6091754490838
W00560,Foxwoods Outlet Center,+1-855-466-7467,North America,USA,US,Mashantucket,"Tanger Outlets Foxwoods, Fox Tower Drive, Ledyard, Southeastern Connecticut Planning Region, 06338, United States",41.47493035,-71.96075792
W00561,Tempe Market Place,+1-855-466-7467,North America,USA,US,Tempe,"H&M, East Tempe Marketplace Drive, The District at Tempe Marketplace, Tempe, Maricopa County, Arizona, 85281, United States",33.43270915,-111.9033879
W00562,Empire Outlets,+1-855-466-7467,North America,USA,US,Staten Island,"King's Walk, Staten Island, Richmond County, City of New York, New York, 10301, United States",40.644601,-74.075575
W00563,Outlets at San Clemente,+1-855-466-7467,North America,USA,US,San Clemente,"101, Avenida Vista Hermosa, San Clemente, Orange County, California, 92672, United States",33.4390793,-117.626831
W00564,North Riverside Park Mall,+1-855-466-7467,North America,USA,US,"North Riverside, IL","North Riverside Park Mall, 7501, West Cermak Road, North Riverside, Riverside Township, Cook County, Illinois, 60546, United States",41.84726701,-87.81084532
W00565,Dolphin Mall,+1-855-466-7467,North America,USA,US,Miami,"Dolphin Mall, 11401, Northwest 12th Street, Sweetwater, Miami, Miami-Dade County, Florida, 33172, United States",25.78764717,-80.38195485
W00566,Kitsap Mall,+1-855-466-7467,North America,USA,US,Silverdale,"Kitsap Mall, 10315, Silverdale Way Northwest, Silverdale, Kitsap County, Washington, 98383, United States",47.6580889,-122.6899548
W00567,Tanger Outlets at Foley,+1-855-466-7467,North America,USA,US,Foley,"Starbucks, 2601, McKenzie Street, Foley, Baldwin County, Alabama, 36535, United States",30.37670715497395,-87.68237420503237
W00568,Southern Park Mall,+1-855-466-7467,North America,USA,US,Youngstown,"Southern Park Mall, California Avenue, Southern Park Mall, Boardman, Mahoning County, Ohio, 44512, United States",41.02024817206555,-80.65936803995055
W00569,Eastwood Mall,+1-855-466-7467,North America,USA,US,Niles,"H&M, Eastwood Mall Boulevard, Eastwood Mall, Niles, Howland, Trumbull County, Ohio, 44484, United States",41.2142260920176,-80.75139197641403
W00570,North Star Mall,+1-855-466-7467,North America,USA,US,"San Antonio, TX","North Star Mall, 7400, San Pedro Avenue, San Antonio, Bexar County, Texas, 78216, United States",29.518746,-98.494482
W00571,Westmoreland Mall,+1-855-466-7467,North America,USA,US,Greensburg,"Westmoreland Mall, 5256, Old State Route 30, Greensburg, Westmoreland County, Pennsylvania, 15601, United States",40.30041949825586,-79.50843952247618
W00572,Parkdale Mall,+1-855-466-7467,North America,USA,US,Beaumont,"Parkdale Mall, 6155, Eastex Freeway, Rosedale, Beaumont, Jefferson County, Texas, 77706, United States",30.12546983004583,-94.1628872993515
W00573,Greenbrier Mall,+1-855-466-7467,North America,USA,US,Chesapeake,"1401, Greenbrier Parkway, Greenbrier, Chesapeake, Virginia, 23320, United States",36.77989309425779,-76.22751375522535
W00574,Pearland Town Center,+1-855-466-7467,North America,USA,US,"Houston, TX","Gringo's Mexican Kitchen, 3005, Kirby Drive, Pearland, Brazoria County, Texas, 77584, United States",29.5542955,-95.3966956
W00575,Oakland Mall,+1-855-466-7467,North America,USA,US,Troy,"Oakland Mall, 41, West 14 Mile Road, Troy, Oakland County, Michigan, 48083, United States",42.5368028,-83.11208193
W00576,Tanger Outlets at Myrtle Beach,+1-855-466-7467,North America,USA,US,Myrtle Beach,"Tanger Outlets, 10835, Kings Road, North Myrtle Beach, Horry County, South Carolina, 29572, United States",33.7843612,-78.7746921
W00577,Green Tree Mall,+1-855-466-7467,North America,USA,US,Clarksville,"Green Tree Mall, Greentree Boulevard, Clarksville, Clark County, Indiana, 47219, United States",38.316275,-85.76414127
W00578,Tanger Outlet San Marcos,+1-855-466-7467,North America,USA,US,San Marcos,"H&M, South Interstate 35, San Marcos, Hays County, Texas, 78666, United States",29.824614,-97.987946
W00579,Eastridge Mall,+1-855-466-7467,North America,USA,US,San Jose,"Eastridge, Eastridge Loop, Eastridge Center, San Jose, Santa Clara County, California, 95121, United States",37.325514,-121.81472
W00580,Village at Meridian,+1-855-466-7467,North America,USA,US,Boise,"3505, East Monarch Sky Lane, The Village At Meridian, Meridian, Ada County, Idaho, 83646, United States",43.6208298,-116.3512864
W00581,Nebraska Crossing Outlet,+1-855-466-7467,North America,USA,US,"Gretna, NE","Fossil, Melia Drive, Nebraska Crossing Outlets, Gretna, Sarpy County, Nebraska, 68028, United States",41.09791181414811,-96.2509776287372
W00582,Valley mall,+1-855-466-7467,North America,USA,US,Harrisonburg,"Valley Mall, 1925, East Market Street, Harrisonburg, Virginia, 22801, United States",38.42780502884173,-78.8436841919713
W00583,Richland Mall,+1-855-466-7467,North America,USA,US,Waco,"Richland Mall, 6001, West Waco Drive, Waco, McLennan County, Texas, 76710, United States",31.516121,-97.1897
W00584,Tanger Outlets Southaven,+1-855-466-7467,North America,USA,US,Southaven,"I 55;I 69, De Soto Woods, Southaven, DeSoto County, Mississippi, 38671, United States",34.9362336,-89.9937933
W00585,Ft Lauderdale Galleria,+1-855-466-7467,North America,USA,US,Fort Lauderdale,"The Galleria at Fort Lauderdale, 2414, East Sunrise Boulevard, Fort Lauderdale, Broward County, Florida, 33304, United States",26.13702694,-80.1133977
W00586,Paseo Colorado,+1-855-466-7467,North America,USA,US,Pasadena,"Pasadena Civic Center District, South Arroyo Parkway, Old Pasadena, Pasadena, California, 91105, United States",34.14514657762497,-118.14461275595858
W00587,The Outlets at Sparks,+1-855-466-7467,North America,USA,US,Sparks,"H&M, Scheels Drive, Outlets at Legends, Sparks, Washoe County, Nevada, 89341, United States",39.53198338806247,-119.72079325008848
W00588,Mall Del Norte,+1-855-466-7467,North America,USA,US,Laredo,"Mall Del Norte, 5300, San Dario Avenue, Nye, Laredo, Webb County, Texas, 78041, United States",27.55317523503806,-99.49801677524216
W00589,Logan Valley Mall,+1-855-466-7467,North America,USA,US,Altoona,"Logan Valley Mall, 5580, Good Lane, Altoona, Blair County, Pennsylvania, 16602, United States",40.46943127,-78.41174536
W00590,Francis Scott Key Mall,+1-855-466-7467,North America,USA,US,Frederick,"Francis Scott Key Mall, 5500, Buckeystown Pike, Ballenger Creek, Frederick County, Maryland, 21704, United States",39.38232922335534,-77.4050485826645
W00591,Grand Central Mall,+855-466-7467,North America,USA,US,Vienna,"500, 32nd Street, Vienna, Wood County, West Virginia, 26105, United States",39.327,-81.5485
W00592,Capital City Mall,+1-855-466-7467,North America,USA,US,Camp Hill,"H&M, Hartzdale Drive, Lower Allen, Cumberland County, Pennsylvania, 17011, United States",40.222284,-76.93335573
W00593,Valley Mall,+1-855-466-7467,North America,USA,US,Hagerstown,"Valley Mall, 17301, Valley Mall Road, Valley Mall, Halfway, Washington County, Maryland, 21740, United States",39.62506517287239,-77.77063161045078
W00594,The Shops at Montebello,+1-855-466-7467,North America,USA,US,Los Angeles,"Montebello Boulevard, California, 91770, United States",34.036997,-118.083616
W00595,Arrowhead Towne Towne Center,+1-855-466-7467,North America,USA,US,"Glendale, AZ","Arrowhead Towne Center, 7700, West Arrowhead Towne Center, Arrowhead Towne Center, Glendale, Maricopa County, Arizona, 85308, United States",33.64190407637157,-112.22440451272394
W00596,Shoppes at Eastchase,+1-855-466-7467,North America,USA,US,Montgomery,"Banana Republic, Eastchase Lane, Halcyon, Montgomery, Montgomery County, Alabama, 36117, United States",32.35842,-86.165991
W00597,The Mall at Prince Georges,+1-855-466-7467,North America,USA,US,Hyattsville,"The Mall at Prince Georges, 3500, East-West Highway, Hyattsville, Prince George's County, Maryland, 20782, United States",38.96863442296124,-76.95832806599799
W00598,Fifth Avenue,+1-855-466-7467,North America,USA,US,New York City,"H&M, 591, 5th Avenue, Manhattan Community Board 5, Manhattan, New York County, City of New York, New York, 10017, United States",40.75702616,-73.97802191
W00599,Lakewood Center,+1-855-466-7467,North America,USA,US,"Lakewood, CA","B Street, Lakewood Center, Lakewood, California, 90714, United States",33.84973247,-118.1401699
W00600,Downtown Summerlin,+1-855-466-7467,North America,USA,US,Las Vegas,"Marketwalk Place, Downtown Summerlin, Summerlin South, Clark County, Nevada, 89135, United States",36.1496371,-115.3348638
W00601,H&M Stonewood Center,+1-855-466-7467,North America,USA,US,Downey,"Stonewood Center, 251, Stonewood Street, Downey, California, 90241, United States",33.935644,-118.119437
W00602,The Shoppes at Arbor Lakes,+1-855-466-7467,North America,USA,US,Maple Grove,"Maple Grove Transit Station, Main Street, Arbor Lakes Retail Center, Maple Grove, Hennepin County, Minnesota, 55369, United States",45.0922167,-93.43699618
W00603,Hulen Mall,+1-855-466-7467,North America,USA,US,Fort Worth,"South Hulen Street, Fort Worth, Tarrant County, Texas, 76132, United States",32.67783574893451,-97.39791281254328
W00604,Fashion Square Mall,+1-855-466-7467,North America,USA,US,Saginaw,"Fashion Square Mall, 4787, Fashion Square Mall, Saginaw Charter Township, Saginaw County, Michigan, 48604, United States",43.475984,-83.972284
W00605,Hill Country Galleria,+1-855-466-7467,North America,USA,US,Bee Cave,"H&M, Vista Ridge, Hill Country Galleria, Bee Cave, Travis County, Texas, 78738, United States",30.30973066,-97.94318049
W00606,Jefferson Valley,+1-855-466-7467,North America,USA,US,Yorktown Heights,"Jefferson Valley Mall, 650, Lee Boulevard, Jefferson Village, Town of Yorktown, Westchester County, New York, 10598, United States",41.32863553506316,-73.80848720859433
W00607,Valley Plaza Mall,+1-855-466-7467,North America,USA,US,Bakersfield,"Valley Plaza Mall, 2701, Ming Avenue, Bakersfield, Kern County, California, 93304, United States",35.337954,-119.031694
W00608,Sawgrass Mills,+1-855-466-7467,North America,USA,US,Fort Lauderdale,"Sawgrass Mills, Purple Parrot Place, Sunrise, Broward County, Florida, 33323, United States",26.15152313488167,-80.32052196360598
W00609,Killeen Mall,+1-855-466-7467,North America,USA,US,Killeen,"Killeen Mall, 2100, South W.S. Young Drive, Killeen, Bell County, Texas, 76543, United States",31.0934138,-97.7165251
W00610,Tanger Outlets Daytona,+1-855-466-7467,North America,USA,US,Daytona Beach,"I 95, Daytona Beach, Volusia County, Florida, 32124, United States",29.2135217,-81.10084
W00611,Barnes Crossing,+1-855-466-7467,North America,USA,US,Tupelo,"Mall at Barnes Crossing, Mall Circle, Tupelo, Lee County, Mississippi, 38804, United States",34.30846174,-88.70188327
W00612,Moorestown Mall,+1-855-466-7467,North America,USA,US,Moorestown,"Moorestown Mall, NJ 38, Moorestown Mall, Moorestown Township, Burlington County, New Jersey, 08052, United States",39.94324477062246,-74.96465338979226
W00613,Ingram Park Mall,+1-8554667467,North America,USA,US,"San Antonio, TX","Ingram Park Mall, 6301, Northwest Loop 410, San Antonio, Bexar County, Texas, 78238, United States",29.469017,-98.621004
W00614,763 Collins Avenue,+1-855-466-7467,North America,USA,US,Miami Beach,"126, 8th Street, South Beach, Miami Beach, Miami-Dade County, Florida, 33139, United States",25.77794955,-80.13196375
W00615,White Marsh Mall,+1-855-466-7467,North America,USA,US,Baltimore,"White Marsh Mall, 8200, Perry Hall Boulevard, White Marsh, Baltimore County, Maryland, 21236, United States",39.375218,-76.467668
W00616,Summit Fair,+1-855-466-7467,North America,USA,US,Kansas City,"Northwest Summit Woods, SummitWoods Crossing, Lee's Summit, Jackson County, Missouri, 64065, United States",38.929479,-94.409093
W00617,Sugarloaf Mills,+1-855-466-7467,North America,USA,US,"Lawrenceville, GA","Sugarloaf Mills, 5900, Sugarloaf Parkway, Lawrenceville, Gwinnett County, Georgia, 30043, United States",33.98172,-84.080916
W00618,Southlake Mall,+1-855-466-7467,North America,USA,US,Morrow,"Southlake Mall, Morrow, Clayton County, Georgia, 30260, United States",33.57526439,-84.35199839
W00619,Patrick Henry Mall,+1-855-466-7467,North America,USA,US,Newport News,"Patrick Henry Shopping Mall, 12300, Jefferson Avenue, Kiln Creek, Newport News, Virginia, 23602, United States",37.11390496,-76.49684551
W00620,York Galleria,+1-855-466-7467,North America,USA,US,York,"York Galleria Mall, 2899, Whiteford Road, Springettsbury Township, York County, Pennsylvania, 17402, United States",39.98891744648711,-76.67571343758038
W00621,Westfield Vancouver,+1-855-466-7467,North America,USA,US,Vancouver,"Vancouver Mall, 8700, Northeast Vancouver Mall Drive, Vancouver Mall, Vancouver, Clark County, Washington, 98662, United States",45.65814625857175,-122.58454625311902
W00622,Westgate Mall,+1-855-466-7467,North America,USA,US,Spartanburg,"205, West Blackstock Road, Spartanburg, Spartanburg County, South Carolina, 29301, United States",34.939743,-81.995217
W00623,The Shoppes at Bel Air,+1-855-466-7467,North America,USA,US,Mobile,"Bel Air Mall, Bridlewood, Mobile, Mobile County, Alabama, 36606, United States",30.67301657,-88.12121419
W00624,Lakeland Square Mall,+1-855-466-7467,North America,USA,US,Lakeland,"Lakeland Square Mall, Mall Hill, Lakeland Square Mall, Lakeland, Polk County, Florida, 33809, United States",28.09179417,-81.97778912
W00625,Colonie Center,+1-855-466-7467,North America,USA,US,Albany,"1417, Central Avenue, Roessleville, Town of Colonie, Albany County, New York, 12205, United States",42.70965539,-73.8166666
W00626,Centre at Salisbury,+1-855-466-7467,North America,USA,US,Salisbury,"The Centre at Salisbury, 2300, North Salisbury Boulevard, Salisbury, Wicomico County, Maryland, 21801, United States",38.39839912,-75.56612117
W00627,Perry Crossing,+1-855-466-7467,North America,USA,US,Plainfield,"The Shoppes at Perry Crossing, Perry Road, Plainfield, Hendricks County, Indiana, 46168, United States",39.71159823,-86.35905281
W00628,La Palmera,+1-855-466-7467,North America,USA,US,Corpus Christi,"La Palmera, 5488, South Padre Island Drive, Corpus Christi, Nueces County, Texas, 78411, United States",27.71162855,-97.37323161
W00629,Pecanland Mall,+1-855-466-7467,North America,USA,US,Monroe,"Pecanland Mall, 4700, Millhaven Road, Magenta, Monroe, Ouachita Parish, Louisiana, 71203, United States",32.49811669,-92.05906749
W00630,Kirkwood Mall,+1-855-466-7467,North America,USA,US,Bismarck,"Kirkwood Mall, 706, South 7th Street, Bismarck, Burleigh County, North Dakota, 58504, United States",46.79665385,-100.7848126
W00631,The Mall at Stonecrest,+1-855-466-7467,North America,USA,US,Atlanta,"American Eagle Outfitters, 8060, Mall Parkway, Lithonia, DeKalb County, Georgia, 30037, United States",33.69870346,-84.09553796
W00632,Outlet Shoppes at Laredo,+1-855-466-7467,North America,USA,US,Laredo,"The Outlet Shoppes of Laredo, 1600, Water Street, Western Division, Laredo, Webb County, Texas, 78040, United States",27.50171083773236,-99.51111235826816
W00633,Longview Mall,+1-855-466-7467,North America,USA,US,Longview,"West Loop 281, Longview, Gregg County, Texas, 75605, United States",32.53956343,-94.75114508
W00634,South Hill Mall,+1-855-466-7467,North America,USA,US,Puyallup,"JCPenney, 3500, South Meridian, Puyallup, Pierce County, Washington, 98373, United States",47.15762011,-122.297726
W00635,Dartmouth Mall,+1-855-466-7467,North America,USA,US,Dartmouth,"Dartmouth Mall, 362, State Road, Smith Mills, Dartmouth, Bristol County, Massachusetts, 02747, United States",41.64169185,-70.99138169
W00636,Wyoming Valley Mall,+1-855-466-7467,North America,USA,US,Wikes-Barre,"Wyoming Valley Mall, Wyoming Valley Mall Road, Wilkes-Barre, Luzerne County, Pennsylvania, 18711, United States",41.24642601,-75.84430781
W00637,Mayfair Town Center,+1-855-466-7467,North America,USA,US,"Wilmington, NC","6867, Main Street, Wilmington, New Hanover County, North Carolina, 28405, United States",34.2425132,-77.83088952
W00638,Tanger Hilton Head,+1-855-466-7467,North America,USA,US,Bluffton,"H&M, Bluffton Parkway, Beaufort County, South Carolina, United States",32.23913973,-80.82039678
W00639,Santa Fe Place,+1-855-466-7467,North America,USA,US,Santa Fe,"Santa Fe Place, 4250, Cerrillos Road, Santa Fe, Santa Fe County, New Mexico, 87507, United States",35.63617816,-106.0148217
W00640,The Outlet Shop of Grand River,+1-855-466-7467,North America,USA,US,Leeds,"Grand River Boulevard, Leeds, Jefferson County, Alabama, 35094, United States",33.54894615,-86.5956375
W00641,River Hills Mall,+1-855-466-7467,North America,USA,US,Mankato,"River Hills Mall, Adams Street, Mankato, Blue Earth County, Minnesota, 56001, United States",44.17284288,-93.95378533
W00642,The Parks Mall at Arlington,+1-855-466-7467,North America,USA,US,Arlington,"Chick-fil-A, 3811, Parks at Arlington Mall, Shops at the Parks, Arlington, Tarrant County, Texas, 76015, United States",32.68134509,-97.129451
W00643,Fashion Outlets at Market East,+855-466-7467,North America,USA,US,Philadelphia,"North 15th Street, Gayborhood, Center City, Philadelphia, Philadelphia County, Pennsylvania, 19102, United States",39.9525839,-75.16522150000003
W00644,The Village at Cumberland Park,+1-855-466-7467,North America,USA,US,Tyler,"North College Avenue, Tyler, Smith County, Texas, 75702, United States",32.3512601,-95.3010624
W00645,Genesee Valley,+1-855-466-7467,North America,USA,US,Flint,"Genesee Valley Center, 3341, Linden Road, Flint Charter Township, Genesee County, Michigan, 48507, United States",42.981106,-83.768026
W00646,East Towne Mall,+1-855-466-7467,North America,USA,US,Madison,"H&M, Independence Lane, Greater Sandburg, Madison, Dane County, Wisconsin, 53707, United States",43.12547,-89.304922
W00647,Tanger Outlets Howell,+1-855-466-7467,North America,USA,US,Howell,"H&M, I 96, Howell Township, Livingston County, Michigan, United States",42.62257773,-83.99889363
W00648,Ford City Mall,+1-855-466-7467,North America,USA,US,Chicago,"Ford City Mall, 7501-7601, South Cicero Avenue, West Lawn, Chicago, Lake Township, Cook County, Illinois, 60652, United States",41.756158,-87.737777
W00649,Magnolia Mall,+1-855-466-7467,North America,USA,US,"Florence, SC","268, East Cheves Street, Florence, Florence County, South Carolina, 29506, United States",34.1954331,-79.7625625
W00650,Capital Mall,+1-855-466-7467,North America,USA,US,Olympia,"Journeys, Truck Delivery, Capital Mall, Olympia, Thurston County, Washington, 98504, United States",47.041992,-122.936155
W00651,Lakeline Mall,+1-855-466-7467,North America,USA,US,Cedar Park,"103, East 5th Street, Downtown, Austin, Travis County, Texas, 78701, United States",30.267153,-97.74306079999997
W00652,Downtown Palm Spring,+1-855-466-7467,North America,USA,US,Palm Springs,"Palm Springs, Riverside County, California, 92292, United States",33.82342614,-116.5471106
W00653,The Streets at Southpoint,+1-8554667467,North America,USA,US,Durham,"The Streets at Southpoint, 6910, Fayetteville Road, Durham, Durham County, North Carolina, 27713, United States",35.90504,-78.943343
W00654,North Town Mall,+1-855-466-7467,North America,USA,US,Spokane,"H&M, East Queen Avenue, Nevada Heights, Spokane, Spokane County, Washington, 99207, United States",47.70300647,-117.4093737
W00655,Del Amo Fashion Center,+1-855-466-7467,North America,USA,US,Torrance,"Del Amo Fashion Center, West Carson Street, Del Amo Fashion Center, Torrance, California, 90503, United States",33.83293044,-118.3492824
W00656,The Shops at Northfield Stapleton,+1-855-466-7467,North America,USA,US,Denver,"Northfield, Main Street West, Denver, Colorado, 80238, United States",39.78317137,-104.8922386
W00657,The Mall at Robinson,+1-855-466-7467,North America,USA,US,Pittsburgh,"Mall Drive, Robinson Township, Allegheny County, Pennsylvania, 15244, United States",40.4544518,-80.1593111
W00658,Northpark Mall,+1-855-466-7467,North America,USA,US,Joplin,"NorthPark Mall, 101, Geneva Avenue, Joplin, Jasper County, Missouri, 64801, United States",37.09093465,-94.47457369
W00659,H&M Outlets of Little Rock,+1-855-466-7467,North America,USA,US,Little Rock,"Outlets Of Little Rock, Gateway Grove Loop, Gateway Town Center, Little Rock, Pulaski County, Arkansas, United States",34.66219682,-92.40949615
W00660,Westbrook Outlets,+1-855-466-7467,North America,USA,US,Westbrook,"314, Flat Rock Place, Westbrook Outlets, Westbrook, Lower Connecticut River Valley Planning Region, Connecticut, 06498, United States",41.28918227,-72.42941737
W00661,Miromar Outlets,+1-855-466-7467,North America,USA,US,Estero,"H&M, Miromar Outlet Drive, Miromar Outlets, Lee County, Florida, 33928, United States",26.4349241,-81.7746996
W00662,La Plaza Mall,+1-855-466-7467,North America,USA,US,McAllen,"La Plaza Mall, 2200, South 10th Street, McAllen, Hidalgo County, Texas, 78503, United States",26.18684992,-98.23593199
W00663,Cordova Mall,+1-855-466-7467,North America,USA,US,Pensacola,"Cordova Mall, 5100, North 9th Avenue, Cordova Mall, Pensacola, Escambia County, Florida, 32504, United States",30.47535344,-87.20748041
W00664,Independence Center,+1-855-466-7467,North America,USA,US,Independence,"Independence Center, 18801, East 39th Street South, Independence, Jackson County, Missouri, 64057, United States",39.0453335,-94.35807363
W00665,Town Center Cobb,+1-855-466-7467,North America,USA,US,Kennesaw,"Town Center at Cobb, Ring Road Northwest, Marietta, Cobb County, Georgia, 30144, United States",34.01817617168553,-84.56323478724006
W00666,4309 La Jolla Village Drive,+1-8554667467,North America,USA,US,San Diego,"La Jolla Village Drive, University City, San Diego, California, 92039, United States",32.872012,-117.210746
W00667,Southland Mall,+1-855-466-7467,North America,USA,US,Hayward,"Mission Boulevard, Hayward, Alameda County, California, 94541, United States",37.6688205,-122.0807964
W00668,Legends Outlet Kansas City,+1-855-466-7467,North America,USA,US,Kansas,"Legends Outlets Kansas City, 1843, Village West Parkway, Village West, Kansas City, Wyandotte County, Kansas, 66109, United States",39.12608243,-94.82583791
W00669,H&M Shoppes at Carlsbad,+1-855-466-7467,North America,USA,US,Carlsbad,"2525, El Camino Real, Plaza Camino Real, Oceanside, California, 92054, United States",33.17831,-117.332001
W00670,Rolling Oaks,+1-855-466-7467,North America,USA,US,"San Antonio, TX","San Antonio, Bexar County, Texas, United States",29.59632601,-98.34994709
W00671,Providence Place,+1-855-466-7467,North America,USA,US,Providence,"Providence Place Cinemas 16 and IMAX, 10, Providence Place, Downtown, Providence, Providence County, Rhode Island, 02903, United States",41.82611498,-71.41588276
W00672,Twelve Oaks Mall,+1-855-466-7467,North America,USA,US,Novi,"Twelve Oaks Mall, 27500, Novi Road, Novi, Oakland County, Michigan, 48377, United States",42.492985,-83.470262
W00673,The Mall of Louisiana,+1-855-466-7467,North America,USA,US,"Baton Rouge, LA","1066, North 49th Street, Belfair, Melrose Place, Baton Rouge, East Baton Rouge Parish, Louisiana, 70802, United States",30.4582829,-91.1403196
W00674,230 Southpark Circle,+1-855-466-7467,North America,USA,US,Colonial Height,"Regal Cinemas Southpark Mall 6, 300, Southpark Circle, Southpark, Colonial Heights, Virginia, 23834, United States",37.253667,-77.3953647
W00675,Irvine Spectrum Center,+1-855-466-7467,North America,USA,US,Irvine,"Lakeside Middle School, 3, Lemongrass, Woodbridge, Irvine, Orange County, California, 92604, United States",33.6839473,-117.79469419999998
W00676,Shops at South Town Center,+1-855-466-7467,North America,USA,US,Sandy,"1834, Sego Lily Drive, Sage Crest Subdivision Number 5, Ashley Park, Sandy, Salt Lake County, Utah, 84092, United States",40.5649781,-111.83897260000003
W00677,Premium Outlet Norfolk,+1-855-466-7467,North America,USA,US,Norfolk,"I 64 Express Lanes, Lansdale, Norfolk, Virginia, 23502, United States",36.8785634,-76.1980504
W00678,Woodbury Lakes,+1-855-466-7467,North America,USA,US,Woodbury,"Woodbury Lakes Road, Woodbury Lakes, Woodbury, Washington County, Minnesota, 55125, United States",44.9467995,-92.9218971
W00679,Allen Premium Outlets,+1-855-466-7467,North America,USA,US,Allen,"6, 820, Chelsea Boulevard, Cottonwood Creek, Allen, Collin County, Texas, 75013, United States",33.133776,-96.660656
W00680,Gaffney Outlet Marketplace,+1-855-466-7467,North America,USA,US,Gaffney,"H&M, Factory Shops Boulevard, Gaffney Outlet Marketplace, Gaffney, Cherokee County, South Carolina, 29341, United States",35.0816232,-81.7136271
W00681,Inland Center,+1-855-466-7467,North America,USA,US,San Bernardino,"Inland Center, 500, Inland Center Drive, San Bernardino, San Bernardino County, California, 92408, United States",34.084607,-117.297298
W00682,Fashion Fair,+1-8554667467,North America,USA,US,Fresno,"12th Avenue, Kings County, California, United States",36.116203,-119.681564
W00683,Gulfport Premium Outlets,+1-8554667467,North America,USA,US,Gulfport,"Gulfport Premium Outlets, 10100, Factory Shops Boulevard, Gulfport, Harrison County, Mississippi, 39503, United States",30.4290731,-89.0992574
W00684,Oak Court Mall,+1-855-466-7467,North America,USA,US,Memphis,"Godiva Chocolatier, Poplar Avenue, The Village, Memphis, Shelby County, West Tennessee, Tennessee, 38117, United States",35.1172361,-89.9133492
W00685,Market Place Mall,+1-8554667467,North America,USA,US,Champaign,"Market Place Shopping Center, Center Drive, Market Place Shopping Center, Champaign, Champaign County, Illinois, 61820, United States",40.142469,-88.242458
W00686,Desert Ridge Marketplace,+1-855-466-7467,North America,USA,US,Phoenix,"East Rose Garden Lane, Phoenix, Maricopa County, Arizona, 85054, United States",33.6767163,-111.9791395
W00687,Spotsylvania Towne Centre,+1-855-466-7467,North America,USA,US,Fredericksburg,"Spotsylvania Towne Centre, 137, Spotsylvania Mall Drive, Spotsylvania Towne Centre, Fredericksburg, Spotsylvania County, Virginia, 22407, United States",38.2916104,-77.5129192
W00688,5001 Monroe St,+1-855-466-7467,North America,USA,US,Toledo,"Franklin Park Mall, Monroe Street, Franklin Park, Toledo, Lucas County, Ohio, 43560, United States",41.69462552366616,-83.64068439049649
W00689,NorthPark Mall,+855-466-7467,North America,USA,US,Daveport,"Sheridan Street, Terrace Ridge, Davenport, Scott County, Iowa, 52806, United States",41.563762,-90.574616
W00690,The Crossroads,+1-855-466-7467,North America,USA,US,Portage,"J L Hudson Drive, The Crossroads, Portage, Kalamazoo County, Michigan, 49081, United States",42.219785,-85.593026
W00691,7804 Abercorn Extension,+1-855-466-7467,North America,USA,US,Savannah,"Oglethorpe Mall, Abercorn Street, Chippewa Terrace, Savannah, Chatham County, Georgia, 31409, United States",32.003862,-81.117087
W00692,Branson Landing,+1-855-466-7467,North America,USA,US,Branson,"Christopher & Banks, 1007, Promenade Way, Branson, Taney County, Missouri, 65616, United States",36.64363762166335,-93.21353343128284
W00693,5101 Hinkleville Road,+1-855-466-7467,North America,USA,US,Paducah,"Kentucky Oaks Mall, New Holt Road, Concord, Paducah, McCracken County, Kentucky, 42001, United States",37.079383,-88.6886679
W00694,1770 East Red Cliffs Drive,+1-855-446-6467,North America,USA,US,St George,"426, 1680 East, Red Cliffs Mall, Middleton, Saint George, Washington County, Utah, 84790, United States",37.1160979,-113.5476219
W00695,San Francisco Premium Outlets,+1-855-466-7467,North America,USA,US,Livermore,"Livermore Outlets Drive, Livermore, Alameda County, California, 94568, United States",37.6986774,-121.8451423
W00696,155 Dorset Street,+1-855-466-7467,North America,USA,US,South Burlington,"University Mall, 155, Dorset Street, South Burlington, Colchester, Chittenden County, Vermont, 05403, United States",44.4658817,-73.184102
W00697,Crocker Park,+1-855-466-7467,North America,USA,US,Westlake,"Main Street, Crocker Park, Westlake, Cuyahoga County, Ohio, 44140, United States",41.45988,-81.952674
W00698,Danbury Fair,+855-466-7467,North America,USA,US,Danbury,"Danbury Fair, 7, Backus Avenue, Danbury, Western Connecticut Planning Region, Connecticut, 06810, United States",41.38133609544232,-73.47915508255757
W00699,Mall of America,+1-855-466-7467,North America,USA,US,"Bloomington, MN","Holiday Stationstore, 123, West Market, Bloomington, Hennepin County, Minnesota, 55425, United States",44.8548651,-93.2444035
W00700,The Oaks - Thousand Oaks,+1-8554667467,North America,USA,US,Thousand Oaks,"The Oaks Mall, 350, West Hillcrest Drive, Thousand Oaks, Ventura County, California, 91360, United States",34.1841708,-118.888045
W00701,Fox River Mall,+1-855-466-746,North America,USA,US,Appleton,"Outer Ring Road, Fox River Mall, Town of Grand Chute, Outagamie County, Wisconsin, 54914, United States",44.2690506,-88.4724927
W00702,Philadelphia Premium Outlets,+855-466-7467,North America,USA,US,Pottstown,"Philadelphia Premium Outlets, 18, Lightcap Road, Limerick Township, Montgomery County, Pennsylvania, 19457, United States",40.2366486,-75.5706085
W00703,Downtown Detroit,+1-855-466-7467,North America,USA,US,Detroit,"Richman Bros. Co. Store Bldg, 1505, Woodward Avenue, Greektown, Detroit, Wayne County, Michigan, 48226, United States",42.33497,-83.04985
W00704,Mesilla Valley Mall,+1-855-466-7467,North America,USA,US,Cruces,"Mesilla Valley Mall, 700, South Telshor Boulevard, Las Cruces, Doña Ana County, New Mexico, 88011, United States",32.311277,-106.743025
W00705,Lighthouse Place Premium Place,+1-855-466-7467,North America,USA,US,Michigan City,"446, Huron, Michigan City, LaPorte County, Indiana, 46360, United States",41.7145907,-86.9089211
W00706,World Trade Center,+1-855-466-7467,North America,USA,US,New York City,"Fulton Street, Whitehall, Financial District, Manhattan, New York County, City of New York, New York, 10048, United States",40.711842,-74.011396
W00707,Denver Premium Outlets,+1-855-466-7467,North America,USA,US,Thornton,"Denver Premium Outlets, 13801, Grant Street, Denver Premium Outlets, Thornton, Adams County, Colorado, 80023, United States",39.948381,-104.986236
W00708,Manhattan Town Center,+1-855-466-7467,North America,USA,US,Manhattan,"Manhattan Town Center, Tuttle Creek Boulevard, Manhattan, Riley County, Kansas, 66502, United States",39.179799,-96.558627
W00709,The Avenue Murfreesboro,+1-855-466-7467,North America,USA,US,Murfreesboro,"The Avenue Murfreesboro, 2615, Medical Center Parkway, Murfreesboro, Rutherford County, Middle Tennessee, Tennessee, 37129, United States",35.860757,-86.445262
W00710,H&M,+1-855-466-7467,North America,USA,US,Knoxville,"Dick's Sporting Goods, 7600, Kingston Pike, Montvue, Bearden, Knoxville, Knox County, East Tennessee, Tennessee, 37934, United States",35.9251137,-84.0394234
W00711,Woodland Hills Mall,+1-855-466-7467,North America,USA,US,"Tulsa, OK","Woodland Hills Mall, Woodland Hills Road, Burning Tree, Tulsa, Tulsa County, Oklahoma, 74133, United States",36.063341,-95.881655
W00712,H&M The SoNo Collection,+1-855-466-7467,North America,USA,US,Norwalk,"Water Street, South Norwalk, Norwalk, Western Connecticut Planning Region, Connecticut, 06856, United States",41.097174,-73.414612
W00713,Camarillo Premium Outlets,+1-855-466-7467,North America,USA,US,Camarillo,"740, Ventura Boulevard, Camarillo, Ventura County, California, 93010, United States",34.2163173,-119.0618583
W00714,H&M Hudson Yards,+1-855-466-7467,North America,USA,US,New York City,"Vessel, Hudson Boulevard East, Chelsea District, Manhattan, New York County, City of New York, New York, 10199, United States",40.7537936,-74.0018791
W00715,Victoria & Alfred Waterfront,+27-860690707,Africa,South Africa,ZA,Cape Town,"Clock Tower Centre, East Quay Road, Foreshore, Cape Town Ward 115, Cape Town, City of Cape Town, 8001, South Africa",-33.9070041,18.42259739999997
W00716,The Pavilion,+27-860690707,Africa,South Africa,ZA,Durban,"Pavilion Shopping Centre, N3, Berea West, eThekwini Ward 24, Queensburgh, eThekwini Metropolitan Municipality, KwaZulu-Natal, 3630, South Africa",-29.849063,30.935744
W00717,Somerset Mall,+27-860690707,Africa,South Africa,ZA,Cape Town,"Somerset Mall, Centenary Drive, Helderzicht, Cape Town Ward 15, Somerset West, City of Cape Town, 7110, South Africa",-34.082257,18.823435
W00718,Ilanga Mall,+27-860690707,Africa,South Africa,ZA,Nelspruit,"Ou Pretoria Road, Mbombela Ward 14, Mbombela (Nelspruit), Mbombela, Ehlanzeni, Mpumalanga, 1211, South Africa",-25.468973,30.967588
W00719,Gateway Theatre of Shopping,+27-860690707,Africa,South Africa,ZA,Durban,"Gateway Theatre of Shopping, Solstice Road, Somerset Park, eThekwini Ward 35, Umhlanga Rocks, eThekwini Metropolitan Municipality, KwaZulu-Natal, 4321, South Africa",-29.725999,31.065828
W00720,Mall of the North,+27-860690707,Africa,South Africa,ZA,Polokwane,"Mall of the North, School Road, Polokwane Ward 23, Polokwane, Polokwane Local Municipality, Capricorn District Municipality, Limpopo, 0699, South Africa",-23.873545,29.50964
W00721,Highveld Mall,+27-860690707,Africa,South Africa,ZA,Witbank,"Highveld Mall, Mandela Street, Emalahleni Ward 34, eMalahleni, Emalahleni Local Municipality, Nkangala, Mpumalanga, 1035, South Africa",-25.887124,29.264148
W00722,Boardwalk Mall,+27-860690707,Africa,South Africa,ZA,Richards Bay,"Sterns, Lira Link, uMhlathuze Ward 2, Richards Bay, uMhlathuze Local Municipality, King Cetswayo District Municipality, KwaZulu-Natal, 3900, South Africa",-28.752748,32.051242
W00723,Vincent Park,+27-860690707,Africa,South Africa,ZA,East London,"Pollock's Kodak Express, Surrey Road, Vincent, Buffalo City Ward 15, East London, Buffalo City Metropolitan Municipality, 5217, South Africa",-32.983803,27.904449
W00724,Canal Walk Shopping Centre,+27-860690707,Africa,South Africa,ZA,Cape Town,"Island Club Road, The Island Club, Milnerton, City of Cape Town, 7446, South Africa",-33.893271,18.511386
W00725,Loch Logan Waterfront,+27-860690707,Africa,South Africa,ZA,Bloemfontein,"Loch Logan Mall, 105, 1st Avenue, Mangaung Ward 20, Bloemfontein, Mangaung Metropolitan Municipality, Free State, 9301, South Africa",-29.114604,26.210716
W00726,Westgate Shopping Centre,+27-860690707,Africa,South Africa,ZA,Johannesburg,"Crous Drive, Westgate Shopping Centre, Johannesburg Ward 85, Roodepoort, City of Johannesburg Metropolitan Municipality, Gauteng, 1725, South Africa",-26.13721,27.86197
